id,district_id,name_en,postcode,latitude,longitude
1,Ampara,Akkaraipattu,32400,7.2184279,81.8541161
2,Ampara,Ambagahawatta,90326,7.3017563,81.6747295
3,Ampara,Ampara,32000,7.3017563,81.6747295
4,Ampara,Bakmitiyawa,32024,7.0296318,81.6802054
5,Ampara,Deegawapiya,32006,7.3017563,81.6747295
6,Ampara,Devalahinda,32038,7.3017563,81.6747295
7,Ampara,Digamadulla Weeragoda,32008,7.3901254,81.6965876
8,Ampara,Dorakumbura,32104,7.3588697,81.3014284
9,Ampara,Gonagolla,32064,7.4303735,81.5589252
10,Ampara,Hulannuge,32514,6.9284717,81.6546714
11,Ampara,Kalmunai,32300,7.3956781,81.8333656
12,Ampara,Kannakipuram,32405,7.4935021,81.7957888
13,Ampara,Karativu,32250,7.3770282,81.8415065
14,Ampara,Kekirihena,32074,7.5074545,81.3351284
15,Ampara,Koknahara,32035,7.2239081,81.5623474
16,Ampara,Kolamanthalawa,32102,7.2942916,81.2794123
17,Ampara,Komari,32418,6.9862603,81.8647787
18,Ampara,Lahugala,32512,6.8720872,81.7226298
19,Ampara,Irakkamam,32450,7.2442442,81.7458845
20,Ampara,Mahaoya,32070,7.531216,81.3560952
21,Ampara,Marathamune,32314,7.3017563,81.6747295
22,Ampara,Namaloya,32037,7.3311927,81.5322149
23,Ampara,Navithanveli,32308,7.4257726,81.7745699
24,Ampara,Nintavur,32340,7.321168,81.8578523
25,Ampara,Oluvil,32360,7.2944473,81.8606821
26,Ampara,Padiyatalawa,32100,7.3925126,81.2436227
27,Ampara,Pahalalanda,32034,7.2226881,81.5898016
28,Ampara,Panama,32508,6.7580589,81.8087721
29,Ampara,Pannalagama,32022,7.3017563,81.6747295
30,Ampara,Paragahakele,32031,7.2577705,81.6089873
31,Ampara,Periyaneelavanai,32316,7.451606,81.814238
32,Ampara,Polwaga Janapadaya,32032,7.243447,81.5569003
33,Ampara,Pottuvil,32500,6.8752706,81.8306334
34,Ampara,Sainthamaruthu,32280,7.3930492,81.8360977
35,Ampara,Samanthurai,32200,7.3574841,81.7951054
36,Ampara,Serankada,32101,7.4567753,81.2787242
37,Ampara,Tempitiya,32072,7.6228935,81.3729372
38,Ampara,Thambiluvil,32415,7.1285122,81.8486164
39,Ampara,Tirukovil,32420,7.1153122,81.8524882
40,Ampara,Uhana,32060,7.363036,81.635277
41,Ampara,Wadinagala,32039,7.1263147,81.5733528
42,Ampara,Wanagamuwa,32454,7.3017563,81.6747295
43,Anuradhapura,Angamuwa,50248,8.1813311,80.2070328
44,Anuradhapura,Anuradhapura,50000,8.3113518,80.4036508
45,Anuradhapura,Awukana,50169,8.010142,80.5131156
46,Anuradhapura,Bogahawewa,50566,8.325545,80.2488596
47,Anuradhapura,Dematawewa,50356,8.283333,80.583333
48,Anuradhapura,Dimbulagala,51031,7.8593413,81.1030573
49,Anuradhapura,Dutuwewa,50393,8.6279802,80.8654534
50,Anuradhapura,Elayapattuwa,50014,8.3553447,80.3964751
51,Anuradhapura,Ellewewa,51034,7.780777,81.0782253
52,Anuradhapura,Eppawala,50260,8.144095,80.4118721
53,Anuradhapura,Etawatunuwewa,50584,8.3113518,80.4036508
54,Anuradhapura,Etaweeragollewa,50518,8.6146048,80.5382889
55,Anuradhapura,Galapitagala,32066,8.0980899,80.6826254
56,Anuradhapura,Galenbindunuwewa,50390,8.2921338,80.7172837
57,Anuradhapura,Galkadawala,50006,8.2594462,80.144254
58,Anuradhapura,Galkiriyagama,50120,7.9263493,80.5718772
59,Anuradhapura,Galkulama,50064,8.3061295,80.4503723
60,Anuradhapura,Galnewa,50170,8.0369211,80.4725346
61,Anuradhapura,Gambirigaswewa,50057,8.4807571,80.3936994
62,Anuradhapura,Ganewalpola,50142,8.0876104,80.6279175
63,Anuradhapura,Gemunupura,50224,8.1965729,80.1679758
64,Anuradhapura,Getalawa,50392,8.318262,80.7740608
65,Anuradhapura,Gnanikulama,50036,8.2990166,80.4368245
66,Anuradhapura,Gonahaddenawa,50554,8.3113518,80.4036508
67,Anuradhapura,Habarana,50150,8.0322147,80.7519272
68,Anuradhapura,Halmillawa Dambulla,50124,8.1718555,80.7534207
69,Anuradhapura,Halmillawetiya,50552,8.7319778,80.6659842
70,Anuradhapura,Hidogama,50044,8.2619434,80.413178
71,Anuradhapura,Horawpatana,50350,8.5569763,80.8312911
72,Anuradhapura,Horiwila,50222,7.866667,81.083333
73,Anuradhapura,Hurigaswewa,50176,8.0948635,80.3700407
74,Anuradhapura,Hurulunikawewa,50394,8.2708614,80.7591814
75,Anuradhapura,Ihala Puliyankulama,61316,8.1520238,80.5632884
76,Anuradhapura,Kagama,50282,8.0422633,80.5072321
77,Anuradhapura,Kahatagasdigiliya,50320,8.425981,80.687253
78,Anuradhapura,Kahatagollewa,50562,8.7352357,80.7990185
79,Anuradhapura,Kalakarambewa,50288,8.3113518,80.4036508
80,Anuradhapura,Kalaoya,50226,8.2100191,80.1075439
81,Anuradhapura,Kalawedi Ulpotha,50556,7.906691,80.375305
82,Anuradhapura,Kallanchiya,50454,8.4634119,80.5716199
83,Anuradhapura,Kalpitiya,61360,8.3227405,80.4086119
84,Anuradhapura,Kalukele Badanagala,51037,7.7830591,81.058906
85,Anuradhapura,Kapugallawa,50370,8.3113518,80.4036508
86,Anuradhapura,Karagahawewa,50232,8.3369264,80.4154586
87,Anuradhapura,Kashyapapura,51032,8.3113518,80.4036508
88,Anuradhapura,Kebithigollewa,50500,8.6411229,80.6696999
89,Anuradhapura,Kekirawa,50100,8.042103,80.593833
90,Anuradhapura,Kendewa,50452,8.4910127,80.6042024
91,Anuradhapura,Kiralogama,50259,8.1906287,80.3686488
92,Anuradhapura,Kirigalwewa,50511,8.536327,80.5577336
93,Anuradhapura,Kirimundalama,61362,8.3113518,80.4036508
94,Anuradhapura,Kitulhitiyawa,50132,8.3113518,80.4036508
95,Anuradhapura,Kurundankulama,50062,8.3548567,80.4521216
96,Anuradhapura,Labunoruwa,50088,8.1649851,80.5979973
97,Anuradhapura,Ihalagama,50304,8.3318305,80.4029017
98,Anuradhapura,Ipologama,50280,8.065027,80.5355107
99,Anuradhapura,Madatugama,50130,7.9458576,80.6271415
100,Anuradhapura,Maha Elagamuwa,50126,7.9914613,80.6188156
101,Anuradhapura,Mahabulankulama,50196,8.3448106,80.3972391
102,Anuradhapura,Mahailluppallama,50270,8.1037364,80.4604643
103,Anuradhapura,Mahakanadarawa,50306,8.3500293,80.3963687
104,Anuradhapura,Mahapothana,50327,8.3878743,80.7612064
105,Anuradhapura,Mahasenpura,50574,8.8618261,80.8488498
106,Anuradhapura,Mahawilachchiya,50022,8.4707551,80.2098219
107,Anuradhapura,Mailagaswewa,50384,8.2818529,80.6826254
108,Anuradhapura,Malwanagama,50236,8.3113518,80.4036508
109,Anuradhapura,Maneruwa,50182,7.9021403,80.4799273
110,Anuradhapura,Maradankadawala,50080,8.1168652,80.5605111
111,Anuradhapura,Maradankalla,50308,8.1168652,80.5605111
112,Anuradhapura,Medawachchiya,50500,8.5374813,80.4909806
113,Anuradhapura,Megodawewa,50334,8.2157061,80.7023799
114,Anuradhapura,Mihintale,50300,8.3534232,80.5049445
115,Anuradhapura,Morakewa,50349,8.5092277,80.785171
116,Anuradhapura,Mulkiriyawa,50324,8.3113518,80.4036508
117,Anuradhapura,Muriyakadawala,50344,8.1446453,80.5884156
118,Colombo,Colombo 15,01500,6.9654765,79.8708395
119,Anuradhapura,Nachchaduwa,50046,8.2554964,80.4827074
120,Anuradhapura,Namalpura,50339,8.143962,80.747319
121,Anuradhapura,Negampaha,50180,7.9578559,80.5112238
122,Anuradhapura,Nochchiyagama,50200,8.2925501,80.2265545
123,Anuradhapura,Nuwaragala,51039,7.7926466,81.0036821
124,Anuradhapura,Padavi Maithripura,50572,8.3448106,80.3972391
125,Anuradhapura,Padavi Parakramapura,50582,8.9034422,80.7757984
126,Anuradhapura,Padavi Sripura,50587,8.919506,80.8087103
127,Anuradhapura,Padavi Sritissapura,50588,8.3113518,80.4036508
128,Anuradhapura,Padaviya,50570,8.8340998,80.7607389
129,Anuradhapura,Padikaramaduwa,50338,8.2358572,80.7473475
130,Anuradhapura,Pahala Halmillewa,50206,8.3046182,80.6179952
131,Anuradhapura,Pahala Maragahawe,50220,8.2428601,80.1531951
132,Anuradhapura,Pahalagama,50244,8.1858538,80.2823063
133,Anuradhapura,Palugaswewa,50144,8.0604407,80.6881718
134,Anuradhapura,Pandukabayapura,50448,8.3113518,80.4036508
135,Anuradhapura,Pandulagama,50029,8.327516,80.3611091
136,Anuradhapura,Parakumpura,50326,8.3113518,80.4036508
137,Anuradhapura,Parangiyawadiya,50354,8.487985,80.9207737
138,Anuradhapura,Parasangahawewa,50055,8.3553447,80.3964751
139,Anuradhapura,Pelatiyawa,51033,7.81604,81.0920218
140,Anuradhapura,Pemaduwa,50020,8.4953668,80.191511
141,Anuradhapura,Perimiyankulama,50004,8.3553447,80.3964751
142,Anuradhapura,Pihimbiyagolewa,50512,8.3113518,80.4036508
143,Anuradhapura,Pubbogama,50122,7.9280797,80.5968189
144,Anuradhapura,Punewa,50506,8.6101671,80.4688061
145,Anuradhapura,Rajanganaya,50246,8.1657207,80.1964443
146,Anuradhapura,Rambewa,50450,8.4401074,80.5049445
147,Anuradhapura,Rampathwila,50386,8.4025946,80.6354665
148,Anuradhapura,Rathmalgahawewa,50514,8.5233992,80.6964905
149,Anuradhapura,Saliyapura,50008,8.4054262,80.4159603
150,Anuradhapura,Seeppukulama,50380,8.3816127,80.5890579
151,Anuradhapura,Senapura,50284,8.0006817,81.1582112
152,Anuradhapura,Sivalakulama,50068,8.2564361,80.6360478
153,Anuradhapura,Siyambalewa,50184,8.0166861,80.4270885
154,Anuradhapura,Sravasthipura,50042,8.2988197,80.3770216
155,Anuradhapura,Talawa,50230,8.2365189,80.350773
156,Anuradhapura,Tambuttegama,50240,8.1540015,80.3045967
157,Anuradhapura,Tammennawa,50104,8.3500293,80.3963687
158,Anuradhapura,Tantirimale,50016,8.5722802,80.2572225
159,Anuradhapura,Telhiriyawa,50242,8.1431293,80.3141349
160,Anuradhapura,Tirappane,50072,8.2133046,80.5271756
161,Anuradhapura,Tittagonewa,50558,8.6964504,80.771321
162,Anuradhapura,Udunuwara Colony,50207,7.2319726,80.5660657
163,Anuradhapura,Upuldeniya,50382,8.3138084,80.6604364
164,Anuradhapura,Uttimaduwa,50067,8.4245753,80.2583325
165,Anuradhapura,Vellamanal,31053,8.3113518,80.4036508
166,Anuradhapura,Viharapalugama,50012,8.3630486,80.4054227
167,Anuradhapura,Wahalkada,50564,8.7224936,80.8350109
168,Anuradhapura,Wahamalgollewa,50492,8.4807079,80.5021652
169,Anuradhapura,Walagambahuwa,50086,8.1558622,80.4966062
170,Anuradhapura,Walahaviddawewa,50516,8.4588719,80.8659969
171,Anuradhapura,Welimuwapotana,50358,8.5592976,80.8350109
172,Anuradhapura,Welioya Project,50586,8.9640414,80.7879407
173,Badulla,Akkarasiyaya,90166,6.9934009,81.0549815
174,Badulla,Aluketiyawa,90736,7.3,81.116667
175,Badulla,Aluttaramma,90722,6.9934009,81.0549815
176,Badulla,Ambadandegama,90108,6.8190052,81.0561458
177,Badulla,Ambagasdowa,90300,6.928071,80.8965758
178,Badulla,Arawa,90017,7.166667,81.083333
179,Badulla,Arawakumbura,90532,7.0873862,81.1995511
180,Badulla,Arawatta,90712,7.3433013,81.0371662
181,Badulla,Atakiriya,90542,6.9818952,81.076283
182,Badulla,Badulla,90000,6.9934009,81.0549815
183,Badulla,Baduluoya,90019,7.1248255,81.0302639
184,Badulla,Ballaketuwa,90092,6.8622569,81.1002985
185,Badulla,Bambarapana,90322,6.9815696,80.9511835
186,Badulla,Bandarawela,90100,6.825878,80.9981576
187,Badulla,Beramada,90066,6.9212506,79.8477852
188,Badulla,Bibilegama,90502,6.896173,81.1402905
189,Badulla,Boragas,90362,6.899901,80.8460822
190,Badulla,Boralanda,90170,6.8279044,80.8945014
191,Badulla,Bowela,90302,6.9818952,81.076283
192,Badulla,Central Camp,32050,6.9934009,81.0549815
193,Badulla,Damanewela,32126,6.9934009,81.0549815
194,Badulla,Dambana,90714,7.4136229,81.1083483
195,Badulla,Dehiattakandiya,32150,7.6712796,81.046484
196,Badulla,Demodara,90080,6.8992829,81.0581776
197,Badulla,Diganatenna,90132,6.8558849,80.9652617
198,Badulla,Dikkapitiya,90214,6.8936862,80.9373623
199,Badulla,Dimbulana,90324,7.0152778,80.94
200,Badulla,Divulapelessa,90726,7.5778255,81.0036821
201,Badulla,Diyatalawa,90150,6.806951,80.9572021
202,Badulla,Dulgolla,90104,6.8568541,80.8834367
203,Badulla,Ekiriyankumbura,91502,7.2988884,81.2408689
204,Badulla,Ella,90090,6.8666988,81.046553
205,Badulla,Ettampitiya,90140,6.9364506,80.987798
206,Badulla,Galauda,90065,6.9934009,81.0549815
207,Badulla,Galporuyaya,90752,7.4285203,81.0368211
208,Badulla,Gawarawela,90082,6.9028497,81.0713261
209,Badulla,Girandurukotte,90750,7.4629169,81.0174917
210,Badulla,Godunna,90067,7.0668238,80.974884
211,Badulla,Gurutalawa,90208,6.843509,80.9000223
212,Badulla,Haldummulla,90180,6.7689228,80.8926681
213,Badulla,Hali Ela,90060,6.9555254,81.0314384
214,Badulla,Hangunnawa,90224,6.9495073,80.8723705
215,Badulla,Haputale,90160,6.7654136,80.9525655
216,Badulla,Hebarawa,90724,7.5319777,80.9898701
217,Badulla,Heeloya,90112,6.8666988,81.046553
218,Badulla,Helahalpe,90122,6.8892883,81.0345068
219,Badulla,Helapupula,90094,6.9818952,81.076283
220,Badulla,Hopton,90524,6.9882322,81.1974846
221,Badulla,Idalgashinna,96167,6.782969,80.9000331
222,Badulla,Kahataruppa,90052,6.9818952,81.076283
223,Badulla,Kalugahakandura,90546,7.1226683,81.0947808
224,Badulla,Kalupahana,90186,6.7910055,80.8453771
225,Badulla,Kebillawela,90102,6.8349605,80.9932836
226,Badulla,Kendagolla,90048,6.9927553,81.1084634
227,Badulla,Keselpotha,90738,7.3283407,81.0942132
228,Badulla,Ketawatta,90016,6.9818952,81.076283
229,Badulla,Kiriwanagama,90184,6.7733517,80.8312138
230,Badulla,Koslanda,90190,6.7431234,81.0178369
231,Badulla,Kuruwitenna,90728,6.9818952,81.076283
232,Badulla,Kuttiyagolla,90046,7.0268486,81.0947808
233,Badulla,Landewela,90068,7.0051402,81.002301
234,Badulla,Liyangahawela,90106,6.8118913,81.0299183
235,Badulla,Lunugala,90530,7.0403676,81.2016737
236,Badulla,Lunuwatta,90310,6.9557235,80.9193912
237,Badulla,Madulsima,90535,7.0466748,81.1582112
238,Badulla,Mahiyanganaya,90700,7.3316102,81.0036821
239,Badulla,Makulella,90114,6.8291991,81.0340601
240,Badulla,Malgoda,90754,6.9818952,81.076283
241,Badulla,Mapakadawewa,90730,7.2893212,81.0257763
242,Badulla,Maspanna,90328,7.0279493,80.9442732
243,Badulla,Maussagolla,90582,6.9124028,81.1385671
244,Badulla,Mawanagama,32158,7.5969789,81.1526976
245,Badulla,Medawela Udukinda,90218,6.8625699,80.857763
246,Badulla,Meegahakiula,90015,7.0186462,81.056398
247,Badulla,Metigahatenna,90540,7.0772039,81.154076
248,Badulla,Mirahawatta,90134,6.875154,80.9339792
249,Badulla,Miriyabedda,90504,6.9934009,81.0549815
250,Badulla,Nawamedagama,32120,7.5253561,81.058906
251,Badulla,Nelumgama,90042,6.994173,81.070005
252,Badulla,Nikapotha,90165,6.7452717,80.972989
253,Badulla,Nugatalawa,90216,6.9019146,80.9077079
254,Badulla,Ohiya,90168,6.8190103,80.8446984
255,Badulla,Pahalarathkinda,90756,6.9934009,81.0549815
256,Badulla,Pallekiruwa,90534,7.0159939,81.2243444
257,Badulla,Passara,90500,6.9349088,81.1526976
258,Badulla,Pattiyagedara,90138,6.9043354,80.974387
259,Badulla,Pelagahatenna,90522,6.9609604,81.1251235
260,Badulla,Perawella,90222,6.9473752,80.8307886
261,Badulla,Pitamaruwa,90544,7.1101522,81.159168
262,Badulla,Pitapola,90171,6.8093028,80.8917353
263,Badulla,Puhulpola,90212,6.9818952,81.076283
264,Badulla,Rajagalatenna,32068,6.9818952,81.076283
265,Badulla,Rathkarawwa,90164,6.806914,80.9055645
266,Badulla,Ridimaliyadda,90704,7.21816,81.1205068
267,Badulla,Silmiyapura,90364,6.9144139,80.8419307
268,Badulla,Sirimalgoda,90044,6.9818952,81.076283
269,Badulla,Siripura,32155,6.9685299,80.9108268
270,Badulla,Sorabora Colony,90718,7.3606125,80.9843446
271,Badulla,Soragune,90183,6.744918,80.8927972
272,Badulla,Soranathota,90008,7.0228496,81.0449518
273,Badulla,Taldena,90014,7.0919913,81.0483583
274,Badulla,Timbirigaspitiya,90012,6.9934009,81.0549815
275,Badulla,Uduhawara,90226,6.9479928,80.8626864
276,Badulla,Uraniya,90702,7.2605443,81.0852318
277,Badulla,Uva Karandagolla,90091,6.9818952,81.076283
278,Badulla,Uva Mawelagama,90192,6.9818952,81.076283
279,Badulla,Uva Tenna,90188,6.9818952,81.076283
280,Badulla,Uva Tissapura,90734,6.9818952,81.076283
281,Badulla,Welimada,90200,6.9019072,80.9079245
282,Badulla,Weranketagoda,32062,6.9818952,81.076283
283,Badulla,Wewatta,90716,7.3862682,81.1644136
284,Badulla,Wineethagama,90034,6.9808805,81.0769642
285,Badulla,Yalagamuwa,90329,6.9818952,81.076283
286,Badulla,Yalwela,90706,7.2642068,81.1567626
287,Batticaloa,Addalaichenai,32350,7.2442579,81.8548071
288,Batticaloa,Ampilanthurai,30162,7.7165561,81.6988172
289,Batticaloa,Araipattai,30150,7.7309971,81.6747295
290,Batticaloa,Ayithiyamalai,30362,7.6736198,81.5703065
291,Batticaloa,Bakiella,30206,7.7309971,81.6747295
292,Batticaloa,Batticaloa,30000,7.7309971,81.6747295
293,Batticaloa,Cheddipalayam,30194,7.5795708,81.7849301
294,Batticaloa,Chenkaladi,30350,7.7858571,81.5898016
295,Batticaloa,Eravur,30300,7.7768972,81.6042028
296,Batticaloa,Kaluwanchikudi,30200,7.5293725,81.7946092
297,Batticaloa,Kaluwankemy,30372,7.5293725,81.7946092
298,Batticaloa,Kannankudah,30016,7.6788698,81.6725022
299,Batticaloa,Karadiyanaru,30354,7.7007466,81.538387
300,Batticaloa,Kathiraveli,30456,8.222881,81.4038577
301,Batticaloa,Kattankudi,30100,7.6853695,81.7260123
302,Batticaloa,Kiran,30394,7.8677797,81.5102655
303,Batticaloa,Kirankulam,30159,7.6053206,81.7683828
304,Batticaloa,Koddaikallar,30249,7.483879,81.8079853
305,Batticaloa,Kokkaddicholai,30160,7.616057,81.7103155
306,Batticaloa,Kurukkalmadam,30192,7.587995,81.780415
307,Batticaloa,Mandur,30220,7.4826649,81.7540902
308,Batticaloa,Miravodai,30426,7.8893464,81.5102655
309,Batticaloa,Murakottanchanai,30392,7.7309971,81.6747295
310,Batticaloa,Navagirinagar,30238,7.7309971,81.6747295
311,Batticaloa,Navatkadu,30018,7.2045267,81.8401957
312,Batticaloa,Oddamavadi,30420,7.9031076,81.5239846
313,Batticaloa,Palamunai,32354,7.6611143,81.7472522
314,Batticaloa,Pankudavely,30352,7.7309971,81.6747295
315,Batticaloa,Periyaporativu,30230,7.519163,81.7691318
316,Batticaloa,Periyapullumalai,30358,7.5816799,81.460856
317,Batticaloa,Pillaiyaradi,30022,7.7309971,81.6747295
318,Batticaloa,Punanai,30428,7.9650074,81.3889748
319,Batticaloa,Thannamunai,30024,7.753103,81.6378019
320,Batticaloa,Thettativu,30196,7.5558103,81.7967011
321,Batticaloa,Thikkodai,30236,7.5243486,81.6884184
322,Batticaloa,Thirupalugamam,30234,7.7309971,81.6747295
323,Batticaloa,Unnichchai,30364,7.618288,81.5488207
324,Batticaloa,Vakaneri,30424,7.9265434,81.4828198
325,Batticaloa,Vakarai,30450,8.1369099,81.434079
326,Batticaloa,Valaichenai,30400,7.9213276,81.5246705
327,Batticaloa,Vantharumoolai,30376,7.7905882,81.5569003
328,Batticaloa,Vellavely,30204,7.4956136,81.7294702
329,Gampaha,Akarawita,10732,6.8422116,80.0030257
330,Galle,Ambalangoda,80300,6.7750847,79.9654324
331,Colombo,Athurugiriya,10150,6.8723185,80.0003875
332,Colombo,Avissawella,10700,6.9543289,80.2045768
333,Colombo,Batawala,10513,6.877427,80.0548894
334,Colombo,Battaramulla,10120,6.8983819,79.9178413
335,Gampaha,Biyagama,11650,6.9462153,79.9892034
336,Colombo,Bope,10522,6.8248895,80.1372757
337,Colombo,Boralesgamuwa,10290,6.823355,79.9090246
338,Colombo,Colombo 8,00800,6.9121796,79.8828828
339,Colombo,Dedigamuwa,10656,6.898019,80.026944
340,Colombo,Dehiwala,10350,6.8301185,79.8800832
341,Colombo,Deltara,10302,6.7851328,79.9137125
342,Colombo,Habarakada,10204,6.8659667,80.0129679
343,Colombo,Hanwella,10650,6.8978344,80.0814292
344,Colombo,Hiripitya,10232,6.8334657,79.9766195
345,Colombo,Hokandara,10118,6.8743192,79.9696277
346,Colombo,Homagama,10200,6.8432762,80.0031833
347,Colombo,Horagala,10502,6.8148295,80.0723673
348,Colombo,Kaduwela,10640,6.9405862,79.9522686
349,Colombo,Kaluaggala,11224,6.9327899,80.1065646
350,Colombo,Kapugoda,10662,6.9449825,80.0746628
351,Colombo,Kehelwatta,12550,6.9335258,79.8597831
352,Colombo,Kiriwattuduwa,10208,6.8023797,80.0073768
353,Colombo,Kolonnawa,10600,6.9280156,79.8908308
354,Colombo,Kosgama,10730,6.9397165,80.1369268
355,Colombo,Madapatha,10306,6.7690465,79.9290642
356,Colombo,Maharagama,10280,6.8478004,79.9217615
357,Colombo,Malabe,10115,6.9078483,79.9474087
358,Colombo,Moratuwa,10400,6.7880706,79.8912813
359,Colombo,Mount Lavinia,10370,6.8221588,79.8731774
360,Colombo,Mullegama,10202,6.8845281,80.0128562
361,Colombo,Napawela,10704,6.8964191,79.8884819
362,Colombo,Nugegoda,10250,6.8649081,79.8996789
363,Colombo,Padukka,10500,6.8453634,80.1037721
364,Colombo,Pannipitiya,10230,6.8463993,79.9484346
365,Colombo,Piliyandala,10300,6.8017575,79.9227313
366,Colombo,Pitipana Homagama,10206,6.8444425,80.0206203
367,Colombo,Polgasowita,10320,6.7899358,79.9808143
368,Colombo,Pugoda,10660,6.9590342,80.1317203
369,Colombo,Ranala,10654,6.9153759,80.0339312
370,Colombo,Siddamulla,10304,6.8172516,79.9598383
371,Colombo,Siyambalagoda,81462,6.7922881,79.9668308
372,Colombo,Sri Jayawardenepura,10100,6.8792756,79.9008074
373,Colombo,Talawatugoda,10116,6.8758648,79.9391936
374,Colombo,Tummodara,10682,6.865895,80.1690642
375,Colombo,Waga,10680,6.8805187,80.1400671
376,Colombo,Colombo 6,00600,6.8746579,79.8604831
377,Galle,Agaliya,80212,6.0085463,80.2422383
378,Galle,Ahangama,80650,5.9739747,80.3621595
379,Galle,Ahungalla,80562,6.3132776,80.0409178
380,Galle,Akmeemana,80090,6.0836306,80.2962385
381,Galle,Alawatugoda,20140,7.4089934,80.6187942
382,Galle,Aluthwala,80332,6.1801958,80.1400671
383,Galle,Ampegama,80204,6.1946744,80.144254
384,Galle,Amugoda,80422,6.3212557,80.2188858
385,Galle,Anangoda,80044,6.0475642,80.2530412
386,Galle,Angulugaha,80122,6.0318525,80.324096
387,Galle,Ankokkawala,80048,6.0532918,80.2809129
388,Galle,Aselapura,51072,6.0535185,80.2209773
389,Galle,Baddegama,80200,6.1688292,80.1793976
390,Galle,Balapitiya,80550,6.2783546,80.0403047
391,Galle,Banagala,80143,6.2815361,80.4259053
392,Galle,Batapola,80320,6.2241821,80.1138369
393,Galle,Bentota,80500,6.4189175,80.005979
394,Galle,Boossa,80270,6.0889494,80.1560648
395,Galle,Dellawa,81477,6.3248959,80.4493405
396,Galle,Dikkumbura,80654,6.0183476,80.3728245
397,Galle,Dodanduwa,80250,6.1028347,80.1302969
398,Galle,Ella Tanabaddegama,80402,6.057749,80.2175572
399,Galle,Elpitiya,80400,6.2879969,80.1596041
400,Galle,Galle,80000,6.0481918,80.2153998
401,Galle,Ginimellagaha,80220,6.1297064,80.169371
402,Galle,Gintota,80280,6.0600121,80.1800221
403,Galle,Godahena,80302,6.2345862,80.0745627
404,Galle,Gonamulla Junction,80054,6.082083,80.290911
405,Galle,Gonapinuwala,80230,6.1434518,80.1344842
406,Galle,Habaraduwa,80630,5.998359,80.3078202
407,Galle,Haburugala,80506,6.4037013,80.0339312
408,Galle,Hikkaduwa,80240,6.1394676,80.1062861
409,Galle,Hiniduma,80080,6.3094482,80.324096
410,Galle,Hiyare,80056,6.0720114,80.3425801
411,Galle,Kahaduwa,80460,6.2234515,80.2126109
412,Galle,Kahawa,80312,6.1881852,80.0772392
413,Galle,Karagoda,80151,6.0352435,80.210495
414,Galle,Karandeniya,80360,6.2683217,80.0898085
415,Galle,Kosgoda,80570,6.3354424,80.0339312
416,Galle,Kottawagama,80062,6.1078139,80.3035884
417,Galle,Kottegoda,81180,6.9615244,80.9361023
418,Galle,Kuleegoda,80328,6.2138206,80.0703308
419,Galle,Magedara,80152,6.0999399,80.4034393
420,Galle,Mahawela Sinhapura,51076,6.6819241,80.4058741
421,Galle,Mapalagama,80112,6.2235607,80.2892727
422,Galle,Mapalagama Central,80116,6.2235607,80.2892727
423,Galle,Mattaka,80424,6.3029501,80.2572225
424,Galle,Meda-Keembiya,80092,6.114005,80.2404959
425,Galle,Meetiyagoda,80330,6.1898343,80.0953942
426,Galle,Nagoda,80110,6.197978,80.2746547
427,Galle,Nakiyadeniya,80064,6.1433285,80.3421984
428,Galle,Nawandagala,80416,6.3112355,80.1400671
429,Galle,Neluwa,80082,6.3731028,80.3575128
430,Galle,Nindana,80318,6.20709,80.1079608
431,Galle,Pahala Millawa,81472,6.2937958,80.4715866
432,Galle,Panangala,80075,6.2629096,80.3237043
433,Galle,Pannimulla Panagoda,80086,6.3537914,80.4086995
434,Galle,Parana Thanayamgoda,80114,6.2305499,80.3129541
435,Galle,Patana,22012,6.0535185,80.2209773
436,Galle,Pitigala,80420,6.3419553,80.2377078
437,Galle,Poddala,80170,6.1084688,80.223766
438,Galle,Polgampola,12136,6.4651893,80.1961205
439,Galle,Porawagama,80408,6.2872078,80.2249426
440,Galle,Rantotuwila,80354,6.0535185,80.2209773
441,Galle,Talagampola,80058,6.0870628,80.3035418
442,Galle,Talgaspe,80406,6.0542348,80.2244631
443,Galle,Talpe,80615,6.0009954,80.2781262
444,Galle,Tawalama,80148,6.3347269,80.3421984
445,Galle,Tiranagama,80244,6.1285798,80.1112155
446,Galle,Udalamatta,80108,6.1835935,80.2982507
447,Galle,Udugama,80070,6.2179047,80.3380213
448,Galle,Uluvitike,80168,6.0833989,80.2112164
449,Galle,Unawatuna,80600,6.0174469,80.2488596
450,Galle,Unawitiya,80214,6.0535185,80.2209773
451,Galle,Uragaha,80352,6.349044,80.0978637
452,Galle,Uragasmanhandiya,80350,6.349044,80.0978637
453,Galle,Wakwella,80042,6.0921684,80.1902963
454,Galle,Walahanduwa,80046,6.0515591,80.2572225
455,Galle,Wanchawela,80120,6.0357108,80.2685967
456,Galle,Wanduramba,80100,6.1324713,80.2488596
457,Galle,Warukandeniya,80084,6.3661038,80.4048306
458,Galle,Watugedara,80340,6.2612121,80.0604774
459,Galle,Weihena,80216,6.3077798,80.2349196
460,Galle,Welikanda,51070,7.9459654,81.2491298
461,Galle,Wilanagama,20142,6.0041796,80.4138113
462,Galle,Yakkalamulla,80150,6.1013495,80.3591002
463,Galle,Yatalamatta,80107,6.1737333,80.2864862
464,Gampaha,Akaragama,11536,7.2734803,79.9570411
465,Gampaha,Ambagaspitiya,11052,7.0844509,80.0653366
466,Gampaha,Ambepussa,11212,7.2561036,80.1693285
467,Gampaha,Andiambalama,11558,7.1788127,79.9068534
468,Gampaha,Attanagalla,11120,7.1137427,80.1355005
469,Gampaha,Badalgama,11538,7.2886523,79.9808143
470,Gampaha,Banduragoda,11244,7.2277935,80.0576834
471,Gampaha,Batuwatta,11011,7.062254,79.9412368
472,Gampaha,Bemmulla,11040,7.1131318,80.0271893
473,Gampaha,Biyagama IPZ,11672,6.962284,80.0090367
474,Gampaha,Bokalagama,11216,7.2153207,80.102926
475,Gampaha,Bollete (WP),11024,7.0840484,80.0098314
476,Gampaha,Bopagama,11134,7.0713069,80.163696
477,Gampaha,Buthpitiya,11720,7.0547003,80.0532264
478,Gampaha,Dagonna,11524,7.2100549,79.9164717
479,Gampaha,Danowita,11896,7.2208777,80.1679758
480,Gampaha,Debahera,11889,7.1579747,80.1498362
481,Gampaha,Dekatana,11690,6.9702324,80.0424192
482,Gampaha,Delgoda,11700,6.9892885,80.0143766
483,Gampaha,Delwagura,11228,7.2652482,80.005979
484,Gampaha,Demalagama,11692,6.9912763,80.0520952
485,Gampaha,Demanhandiya,11270,7.2243879,79.8845135
486,Gampaha,Dewalapola,11102,7.1612037,79.9919995
487,Gampaha,Divulapitiya,11250,7.2303143,80.016474
488,Gampaha,Divuldeniya,11208,7.2807254,80.0437123
489,Gampaha,Dompe,11680,6.9403947,80.0771962
490,Gampaha,Dunagaha,11264,7.2220533,79.9780178
491,Gampaha,Ekala,11380,7.1022913,79.9094751
492,Gampaha,Ellakkala,11116,7.141665,80.1330885
493,Gampaha,Essella,11108,7.1765135,80.0254696
494,Gampaha,Galedanda,90206,6.9648642,79.9318623
495,Gampaha,Gampaha,11000,7.0840484,80.0098314
496,Gampaha,Ganemulla,11020,7.082719,79.9482548
497,Gampaha,Giriulla,60140,7.3486749,80.1380195
498,Gampaha,Gonawala,11630,6.9541703,79.9366187
499,Gampaha,Halpe,70145,7.2622107,79.9290642
500,Gampaha,Hapugastenna,70164,6.740544,80.1888173
501,Gampaha,Heiyanthuduwa,11618,6.9718768,79.9737642
502,Gampaha,Hinatiyana Madawala,11568,7.1501572,79.9122738
503,Gampaha,Hiswella,11734,7.0201574,80.1637901
504,Gampaha,Horampella,11564,7.1702315,79.9794161
505,Gampaha,Hunumulla,11262,7.233651,79.989309
506,Gampaha,Hunupola,60582,7.6142188,80.3895248
507,Gampaha,Ihala Madampella,11265,7.2489535,79.9537193
508,Gampaha,Imbulgoda,11856,7.087046,80.0175104
509,Gampaha,Ja-Ela,11350,7.0857596,79.9254445
510,Gampaha,Kadawatha,11850,7.0046719,79.9542002
511,Gampaha,Kahatowita,11144,7.0974551,80.112239
512,Gampaha,Kalagedihena,11875,7.1201435,80.0590804
513,Gampaha,Kaleliya,11160,7.1970231,80.1107531
514,Gampaha,Kandana,11320,7.0477897,79.8970348
515,Gampaha,Katana,11534,7.2480284,79.8993665
516,Gampaha,Katudeniya,21016,7.438319,80.6415452
517,Gampaha,Katunayake,11450,7.1724849,79.8853484
518,Gampaha,Katunayake Air Force Camp,11440,7.1828293,79.867739
519,Gampaha,Katunayake(FTZ),11420,7.1736603,79.8868861
520,Gampaha,Katuwellegama,11526,7.1997133,79.9497668
521,Gampaha,Kelaniya,11600,6.9782137,79.9115522
522,Gampaha,Kimbulapitiya,11522,7.2042407,79.8940806
523,Gampaha,Kirindiwela,11730,7.0411825,80.1289324
524,Gampaha,Kitalawalana,11206,7.2909333,80.1142434
525,Gampaha,Kochchikade,11540,7.2657063,79.8591235
526,Gampaha,Kotadeniyawa,11232,7.2838813,80.066065
527,Gampaha,Kotugoda,11390,7.123191,79.9241673
528,Gampaha,Kumbaloluwa,11105,7.1771057,80.1121493
529,Gampaha,Loluwagoda,11204,7.2921006,80.135035
530,Gampaha,Mabodale,11114,7.2024369,80.0187213
531,Gampaha,Madelgamuwa,11033,7.1084613,79.9598696
532,Gampaha,Makewita,11358,7.10095,79.9633262
533,Gampaha,Makola,11640,6.9718989,79.9466398
534,Gampaha,Malwana,11670,6.9507844,80.0157449
535,Gampaha,Mandawala,11061,7.0001178,80.0939978
536,Gampaha,Marandagahamula,11260,7.2289814,79.9906015
537,Gampaha,Mellawagedara,11234,7.2856809,80.026944
538,Gampaha,Minuwangoda,11550,7.1842076,79.9500477
539,Gampaha,Mirigama,11200,7.2271109,80.1567664
540,Gampaha,Miriswatta,80508,7.0727394,80.0157633
541,Gampaha,Mithirigala,11742,6.9962236,80.1609995
542,Gampaha,Muddaragama,11112,7.2085995,80.0550033
543,Gampaha,Mudungoda,11056,7.0666922,80.012269
544,Gampaha,Mulleriyawa New Town,10620,7.0840484,80.0098314
545,Gampaha,Naranwala,11063,7.0118957,80.0241489
546,Gampaha,Nawana,11222,7.0840484,80.0098314
547,Gampaha,Nedungamuwa,11066,7.0489741,80.0213538
548,Gampaha,Negombo,11500,7.1955474,79.8573384
549,Gampaha,Nikadalupotha,60580,7.6540965,80.3756081
550,Gampaha,Nikahetikanda,11128,7.0988024,80.1791368
551,Gampaha,Nittambuwa,11880,7.1423639,80.1037721
552,Gampaha,Niwandama,11354,7.0734533,79.9277763
553,Gampaha,Opatha,80142,7.1320576,79.9263427
554,Gampaha,Pamunugama,11370,7.0864986,79.8548823
555,Gampaha,Pamunuwatta,11214,7.2163123,80.1414627
556,Gampaha,Panawala,70612,7.1674068,80.0939978
557,Gampaha,Pasyala,11890,7.1667103,80.1233175
558,Gampaha,Peliyagoda,11830,6.9584915,79.9055819
559,Gampaha,Pepiliyawala,11741,7.00218,80.128901
560,Gampaha,Pethiyagoda,11043,7.1380617,79.9951044
561,Gampaha,Polpithimukulana,11324,7.0840484,80.0098314
562,Gampaha,Puwakpitiya,10712,7.0380187,80.0674619
563,Gampaha,Radawadunna,11892,7.1843873,80.1414627
564,Gampaha,Radawana,11725,7.0319495,80.0939978
565,Gampaha,Raddolugama,11400,7.1406334,79.9013603
566,Gampaha,Ragama,11010,7.0231768,79.9077723
567,Gampaha,Ruggahawila,11142,7.1100379,80.1142434
568,Gampaha,Seeduwa,11410,7.1406784,79.8869732
569,Gampaha,Siyambalape,11607,6.9674112,79.9892034
570,Gampaha,Talahena,11504,7.0840484,80.0098314
571,Gampaha,Thambagalla,60584,7.0840484,80.0098314
572,Gampaha,Thimbirigaskatuwa,11532,7.1354242,79.8885102
573,Gampaha,Tittapattara,10664,6.9135615,80.0597213
574,Gampaha,Udathuthiripitiya,11054,7.0840484,80.0098314
575,Gampaha,Udugampola,11030,7.1263574,79.9780178
576,Gampaha,Uggalboda,11034,7.1324802,79.9542438
577,Gampaha,Urapola,11126,7.0980424,80.1449906
578,Gampaha,Uswetakeiyawa,11328,7.0389911,79.8660836
579,Gampaha,Veyangoda,11100,7.1662139,80.0558695
580,Gampaha,Walgammulla,11146,7.0709392,80.1177335
581,Gampaha,Walpita,11226,7.2612667,80.045913
582,Gampaha,Walpola (WP),11012,7.1943487,79.9276651
583,Gampaha,Wathurugama,11724,7.0546548,80.1009796
584,Gampaha,Watinapaha,11104,7.1853118,80.0003875
585,Gampaha,Wattala,11104,6.9906677,79.8931709
586,Gampaha,Weboda,11858,7.0251175,79.9913005
587,Gampaha,Wegowwa,11562,7.1716032,79.9746299
588,Gampaha,Weweldeniya,11894,7.1979285,80.1526271
589,Gampaha,Yakkala,11870,7.0864153,80.0335107
590,Gampaha,Yatiyana,11566,7.1867708,79.9260548
591,Hambantota,Ambalantota,82100,6.1225999,81.0237594
592,Hambantota,Angunakolapelessa,82220,6.1655689,80.9031172
593,Hambantota,Angunakolawewa,91302,6.4115488,81.0859235
594,Hambantota,Bandagiriya Colony,82005,6.2408604,81.1448479
595,Hambantota,Barawakumbuka,82110,6.2257854,80.9290685
596,Hambantota,Beliatta,82400,6.0481573,80.7339144
597,Hambantota,Beragama,82102,6.1421255,81.0318169
598,Hambantota,Beralihela,82618,6.321587,81.2981673
599,Hambantota,Bundala,82002,6.1942487,81.1873141
600,Hambantota,Ellagala,82619,6.333333,81.25
601,Hambantota,Gangulandeniya,82586,6.2956299,80.7186697
602,Hambantota,Getamanna,82420,6.0395499,80.6895583
603,Hambantota,Goda Koggalla,82401,6.183333,81.016667
604,Hambantota,Gonagamuwa Uduwila,82602,6.2472394,81.265649
605,Hambantota,Gonnoruwa,82006,6.233333,81.1
606,Hambantota,Hakuruwela,82248,6.1493333,80.8308587
607,Hambantota,Hambantota,82000,6.1428829,81.1212308
608,Hambantota,Handugala,81326,6.1903211,80.6257539
609,Hambantota,Hungama,82120,6.115626,80.9290685
610,Hambantota,Ihala Beligalla,82412,6.1535816,81.127149
611,Hambantota,Iththa Demaliya,82462,6.1678463,80.7459337
612,Hambantota,Julampitiya,82252,6.2355232,80.7354311
613,Hambantota,Kahandamodara,82126,6.0698824,80.891511
614,Hambantota,Kariyamaditta,82274,6.2552733,80.8128636
615,Hambantota,Katuwana,82500,6.2636238,80.6909448
616,Hambantota,Kawantissapura,82622,6.3518712,81.3129795
617,Hambantota,Kirama,82550,6.2066921,80.6618234
618,Hambantota,Kirinda,82614,6.235236,81.3344408
619,Hambantota,Lunama,82108,6.0953167,80.9677658
620,Hambantota,Lunugamwehera,82634,6.3383515,81.1442093
621,Hambantota,Magama,82608,6.2058366,81.30418
622,Hambantota,Mahagalwewa,82016,6.3854382,81.0395821
623,Hambantota,Mamadala,82109,6.1596539,80.974674
624,Hambantota,Medamulana,82254,6.1810279,80.7685508
625,Hambantota,Middeniya,82270,6.2513579,80.7641653
626,Hambantota,Meegahajandura,82014,6.1592853,81.1273013
627,Hambantota,Modarawana,82416,6.1173609,80.7242136
628,Hambantota,Mulkirigala,82242,6.1087918,80.7588541
629,Hambantota,Nakulugamuwa,82300,5.9954309,80.7089671
630,Hambantota,Netolpitiya,82135,6.0656506,80.8391628
631,Hambantota,Nihiluwa,82414,6.0713577,80.7062933
632,Hambantota,Padawkema,82636,6.1428829,81.1212308
633,Hambantota,Pahala Andarawewa,82008,6.299588,81.0856327
634,Hambantota,Rammalawarapitiya,82554,6.2219871,80.6368539
635,Hambantota,Ranakeliya,82612,6.1428829,81.1212308
636,Hambantota,Ranmuduwewa,82018,6.3462942,81.058906
637,Hambantota,Ranna,82125,6.0935429,80.8626864
638,Hambantota,Ratmalwala,82276,6.1428829,81.1212308
639,Hambantota,Ruhunu Ridiyagama,82106,6.2468436,80.9824649
640,Hambantota,Sooriyawewa Town,82010,6.3110025,80.9953952
641,Hambantota,Tangalla,82200,6.0243383,80.7940726
642,Hambantota,Tissamaharama,82600,6.2791538,81.2876691
643,Hambantota,Uda Gomadiya,82504,6.2956159,80.6693375
644,Hambantota,Udamattala,82638,6.2913906,81.1213571
645,Hambantota,Uswewa,82278,6.2420622,80.8834367
646,Hambantota,Vitharandeniya,82232,6.0243383,80.7940726
647,Hambantota,Walasmulla,82450,6.1508888,80.6937177
648,Hambantota,Weeraketiya,82240,6.1476081,80.7633743
649,Hambantota,Weerawila,82632,6.2421494,81.229209
650,Hambantota,Weerawila NewTown,82615,6.2421494,81.229209
651,Hambantota,Wekandawela,82246,6.1428829,81.1212308
652,Hambantota,Weligatta,82004,6.2385761,81.2188355
653,Hambantota,Yatigala,82418,6.1134196,80.6947365
654,Jaffna,Jaffna,40000,9.669013,80.0269528
655,Kalutara,Agalawatta,12200,6.5422794,80.157504
656,Kalutara,Alubomulla,12524,6.7113091,79.9458514
657,Kalutara,Anguruwatota,12320,6.6446971,80.0745954
658,Kalutara,Atale,71363,6.45,80.266667
659,Kalutara,Baduraliya,12230,6.5171221,80.2311801
660,Kalutara,Bandaragama,12530,6.7144073,79.9890604
661,Kalutara,Batugampola,10526,6.7739817,80.1396721
662,Kalutara,Bellana,12224,6.522136,80.1735565
663,Kalutara,Beruwala,12070,6.4632038,79.9747124
664,Kalutara,Bolossagama,12008,6.6230589,80.0157633
665,Kalutara,Bombuwala,12024,6.5754072,80.0142805
666,Kalutara,Boralugoda,12142,6.4347185,80.2795195
667,Kalutara,Bulathsinhala,12300,6.6487471,80.1791368
668,Kalutara,Danawala Thiniyawala,12148,6.415104,80.3286273
669,Kalutara,Delmella,12304,6.6796219,80.2056382
670,Kalutara,Dharga Town,12090,6.4447452,80.0168602
671,Kalutara,Diwalakada,12308,6.5711153,80.0608753
672,Kalutara,Dodangoda,12020,6.5528675,80.0232923
673,Kalutara,Dombagoda,12416,6.6461737,80.0506981
674,Kalutara,Ethkandura,80458,6.2328918,80.1568134
675,Kalutara,Galpatha,12005,6.629145,80.0234502
676,Kalutara,Gamagoda,12016,6.5839412,79.9953597
677,Kalutara,Gonagalpura,80502,6.5853948,79.96074
678,Kalutara,Gonapola Junction,12410,6.7563403,80.0171609
679,Kalutara,Govinna,12310,6.6752389,80.1183488
680,Kalutara,Gurulubadda,12236,6.0482692,80.1960396
681,Kalutara,Halkandawila,12055,6.5,80.0166667
682,Kalutara,Haltota,12538,6.6942555,80.030861
683,Kalutara,Halvitigala Colony,80146,6.311722,80.3651035
684,Kalutara,Halwala,12118,6.4208769,80.1065646
685,Kalutara,Halwatura,12306,6.7175993,80.1902963
686,Kalutara,Handapangoda,10524,6.7905692,80.1400671
687,Kalutara,Hedigalla Colony,12234,6.466391,80.2850929
688,Kalutara,Henegama,11715,6.4838722,80.1009796
689,Kalutara,Hettimulla,71210,6.4580766,79.9908006
690,Kalutara,Horana,12400,6.7246534,80.0399464
691,Kalutara,Ittapana,12116,6.4366484,80.095523
692,Kalutara,Kahawala,10508,6.7794255,80.1121493
693,Kalutara,Kalawila Kiranthidiya,12078,6.4545693,80.0103861
694,Kalutara,Kalutara,12000,6.5853948,79.96074
695,Kalutara,Kananwila,12418,6.7542378,80.0622815
696,Kalutara,Kandanagama,12428,6.7144073,79.9890604
697,Kalutara,Kelinkanda,12218,6.5745254,80.2934522
698,Kalutara,Kitulgoda,12222,6.5064502,80.1791368
699,Kalutara,Koholana,12007,6.6172796,79.9906015
700,Kalutara,Kuda Uduwa,12426,6.7662085,80.0778931
701,Kalutara,Labbala,60162,7.3396077,80.0784613
702,Kalutara,Ihalahewessa,80432,6.5853948,79.96074
703,Kalutara,Induruwa,80510,6.3758511,80.0093105
704,Kalutara,Ingiriya,12440,6.7403769,80.1624543
705,Kalutara,Maggona,12060,6.5095799,79.995717
706,Kalutara,Mahagama,12210,6.6035286,80.1596041
707,Kalutara,Mahakalupahana,12126,6.5853948,79.96074
708,Kalutara,Maharangalla,71211,6.6015528,79.9753241
709,Kalutara,Malgalla Talangalla,80144,6.3074148,80.3660715
710,Kalutara,Matugama,12100,6.5219432,80.1136852
711,Kalutara,Meegahatenna,12130,6.433116,80.1958755
712,Kalutara,Meegama,12094,6.4213498,80.0632713
713,Kalutara,Meegoda,10504,6.5893613,79.9636673
714,Kalutara,Millaniya,12412,6.6805151,80.020655
715,Kalutara,Millewa,12422,6.7812105,80.0702555
716,Kalutara,Miwanapalana,12424,6.7433848,80.0939978
717,Kalutara,Molkawa,12216,6.6050701,80.2377078
718,Kalutara,Morapitiya,12232,6.5305266,80.2736514
719,Kalutara,Morontuduwa,12564,6.6623451,79.9703269
720,Kalutara,Nawattuduwa,12106,6.484951,80.063822
721,Kalutara,Neboda,12030,6.5916551,80.0926014
722,Kalutara,Padagoda,12074,6.5657686,79.9836108
723,Kalutara,Pahalahewessa,12144,6.5853948,79.96074
724,Kalutara,Paiyagala,12050,6.5186103,79.9947956
725,Kalutara,Panadura,12500,6.7527994,79.8949309
726,Kalutara,Pannala,60160,6.5660074,79.9625419
727,Kalutara,Paragastota,12414,6.6728765,80.0017854
728,Kalutara,Paragoda,12302,6.6122074,80.2266847
729,Kalutara,Paraigama,12122,6.5853948,79.96074
730,Kalutara,Pelanda,12214,6.5853948,79.96074
731,Kalutara,Pelawatta,12138,6.40053,80.2120618
732,Kalutara,Pimbura,70472,6.5586762,80.1568134
733,Kalutara,Pitagaldeniya,71360,7.1926678,80.3001581
734,Kalutara,Pokunuwita,12404,6.7288686,80.0297389
735,Kalutara,Poruwedanda,12432,6.7363193,80.1335559
736,Kalutara,Ratmale,81030,6.4611781,80.1980844
737,Kalutara,Remunagoda,12009,6.6079079,80.0252719
738,Kalutara,Talgaswela,80470,6.2441026,80.2708957
739,Kalutara,Tebuwana,12025,6.5922759,80.0576834
740,Kalutara,Uduwara,12322,6.6230195,80.0672436
741,Kalutara,Utumgama,12127,6.4269977,80.1512317
742,Kalutara,Veyangalla,12204,6.5823581,80.1473613
743,Kalutara,Wadduwa,12560,6.6362823,79.9528451
744,Kalutara,Walagedara,12112,6.4499184,80.0793342
745,Kalutara,Walallawita,12134,6.380555,80.1958755
746,Kalutara,Waskaduwa,12580,6.626858,79.9430537
747,Kalutara,Welipenna,12108,6.4681994,80.1065646
748,Kalutara,Weliveriya,11710,7.0313407,80.0287514
749,Kalutara,Welmilla Junction,12534,6.7484326,79.9714847
750,Kalutara,Weragala,71622,6.5293595,80.005979
751,Kalutara,Yagirala,12124,6.3694091,80.1623948
752,Kalutara,Yatadolawatta,12104,6.5201615,80.0730491
753,Kalutara,Yatawara Junction,12006,6.6003243,80.0368488
754,Kandy,Aludeniya,20062,7.330693,80.5688428
755,Kandy,Ambagahapelessa,20986,7.243567,81.0064442
756,Kandy,Ambagamuwa Udabulathgama,20678,7.113249,80.6188156
757,Kandy,Ambatenna,20136,7.3529789,80.6132646
758,Kandy,Ampitiya,20160,7.2686359,80.6632103
759,Kandy,Ankumbura,20150,7.4375189,80.5688428
760,Kandy,Atabage,20574,7.1377326,80.6110631
761,Kandy,Balana,20308,7.2722453,80.4882266
762,Kandy,Bambaragahaela,20644,7.2891461,80.7607589
763,Kandy,Batagolladeniya,20154,7.4150107,80.5785621
764,Kandy,Batugoda,20132,7.3656832,80.6054355
765,Kandy,Batumulla,20966,7.2644742,80.9843446
766,Kandy,Bawlana,20218,7.2098227,80.7200557
767,Kandy,Bopana,20932,7.3068248,80.9000331
768,Kandy,Danture,20465,7.2820957,80.541067
769,Kandy,Dedunupitiya,20068,7.326624,80.439606
770,Kandy,Dekinda,20658,7.0161138,80.5166709
771,Kandy,Deltota,20430,7.1726745,80.701571
772,Kandy,Divulankadawala,51428,8.1117576,80.9290685
773,Kandy,Dolapihilla,20126,7.3950036,80.5799505
774,Kandy,Dolosbage,20510,7.0860812,80.4604643
775,Kandy,Dunuwila,20824,7.3790749,80.6479524
776,Kandy,Etulgama,20202,7.2514354,80.6645275
777,Kandy,Galaboda,20664,6.9811952,80.5271756
778,Kandy,Galagedara,20100,7.3699683,80.5327324
779,Kandy,Galaha,20420,7.1968444,80.6715317
780,Kandy,Galhinna,20152,7.416022,80.5632884
781,Kandy,Gampola,20500,7.126777,80.564677
782,Kandy,Gelioya,20620,7.2153151,80.5979973
783,Kandy,Godamunna,20214,7.2280819,80.7006496
784,Kandy,Gomagoda,20184,7.305057,80.6188156
785,Kandy,Gonagantenna,20712,7.2905715,80.6337262
786,Kandy,Gonawalapatana,20656,7.2905715,80.6337262
787,Kandy,Gunnepana,20270,7.322861,80.6591326
788,Kandy,Gurudeniya,20189,7.2631139,80.7181651
789,Kandy,Hakmana,81300,7.3143395,80.8041635
790,Kandy,Handaganawa,20984,7.2673078,80.9926327
791,Kandy,Handawalapitiya,20438,7.0447008,80.5160608
792,Kandy,Handessa,20480,7.2303052,80.582033
793,Nuwara Eliya,Hanguranketha,20710,7.2905715,80.6337262
794,Kandy,Harangalagama,20669,7.2905715,80.6337262
795,Kandy,Hataraliyadda,20060,7.336886,80.4718143
796,Kandy,Hindagala,20414,7.2367463,80.6035494
797,Kandy,Hondiyadeniya,20524,7.3210214,80.6158405
798,Kandy,Hunnasgiriya,20948,7.2991707,80.8516173
799,Kandy,Inguruwatta,60064,7.1767821,80.6021614
800,Kandy,Jambugahapitiya,20822,7.3595244,80.638935
801,Kandy,Kadugannawa,20300,7.2549725,80.5188396
802,Kandy,Kahataliyadda,20924,7.3357798,80.4711537
803,Kandy,Kalugala,20926,7.3869083,80.8972673
804,Kandy,Kandy,20000,7.2797462,80.6202033
805,Kandy,Kapuliyadde,20206,7.2391178,80.7107233
806,Kandy,Katugastota,20800,7.3359903,80.6214005
807,Kandy,Katukitula,20588,7.0815528,80.6679485
808,Kandy,Kelanigama,20688,6.9764837,80.4815114
809,Kandy,Kengalla,20186,7.2925366,80.7228277
810,Kandy,Ketaboola,20660,7.0101649,80.5896226
811,Kandy,Ketakumbura,20306,7.2832756,80.6618234
812,Kandy,Kobonila,20928,7.2905715,80.6337262
813,Kandy,Kolabissa,20212,7.1692843,80.7324646
814,Kandy,Kolongoda,20971,7.4721541,80.9456553
815,Kandy,Kulugammana,20048,7.3182742,80.5958519
816,Kandy,Kumbukkandura,20902,7.3045941,80.742141
817,Kandy,Kumburegama,20086,7.3509119,80.5477687
818,Kandy,Kundasale,20168,7.2821995,80.6942758
819,Kandy,Leemagahakotuwa,20482,7.2153626,80.5710555
820,Kandy,Ihala Kobbekaduwa,20042,7.3128888,80.5602795
821,Kandy,Lunugama,11062,7.1983089,80.5806447
822,Kandy,Lunuketiya Maditta,20172,7.2905715,80.6337262
823,Kandy,Madawala Bazaar,20260,7.3275593,80.6743053
824,Kandy,Madawalalanda,32016,7.1841903,81.6747295
825,Kandy,Madugalla,20938,7.2584531,80.8834367
826,Kandy,Madulkele,20840,7.3929234,80.7238996
827,Kandy,Mahadoraliyadda,20945,7.3357798,80.4711537
828,Kandy,Mahamedagama,20216,7.2216032,80.714128
829,Kandy,Mahanagapura,32018,6.3252079,81.2105713
830,Kandy,Mailapitiya,20702,7.2277943,80.7519272
831,Kandy,Makkanigama,20828,7.345516,80.7034222
832,Kandy,Makuldeniya,20921,7.3404154,80.7796313
833,Kandy,Mangalagama,32069,7.292147,80.63451
834,Kandy,Mapakanda,20662,7.2301701,80.6077132
835,Kandy,Marassana,20210,7.2063603,80.7463852
836,Nuwara Eliya,Marymount Colony,20714,7.2905715,80.6337262
837,Kandy,Mawatura,20564,7.0880927,80.5732879
838,Kandy,Medamahanuwara,20940,7.2864584,80.8170167
839,Kandy,Medawala Harispattuwa,20120,7.3575007,80.5743969
840,Kandy,Meetalawa,20512,7.1371268,80.5260006
841,Kandy,Megoda Kalugamuwa,20409,7.2071915,80.6090733
842,Kandy,Menikdiwela,20470,7.1448971,80.5383836
843,Kandy,Menikhinna,20170,7.3174581,80.7020359
844,Kandy,Mimure,20923,7.4326453,80.8460822
845,Kandy,Minigamuwa,20109,7.3413231,80.5035548
846,Kandy,Minipe,20983,7.2274523,81.0009199
847,Kandy,Moragahapallama,32012,7.3026905,80.6292799
848,Kandy,Murutalawa,20232,7.2986783,80.5688428
849,Kandy,Muruthagahamulla,20526,7.2070942,80.5868921
850,Kandy,Nanuoya,22150,6.9403158,80.7408429
851,Kandy,Naranpanawa,20176,7.3441309,80.7332216
852,Kandy,Narawelpita,81302,7.2905715,80.6337262
853,Kandy,Nawalapitiya,20650,7.0447008,80.5160608
854,Kandy,Nawathispane,20670,7.0398172,80.6038578
855,Kandy,Nillambe,20418,7.1995017,80.6130054
856,Kandy,Nugaliyadda,20204,7.2375464,80.6956128
857,Kandy,Ovilikanda,21020,7.4525466,80.5841155
858,Kandy,Pallekotuwa,20084,6.0250143,80.2180408
859,Kandy,Panwilatenna,20544,7.1558233,80.6319329
860,Kandy,Paradeka,20578,7.1238905,80.6188156
861,Kandy,Pasbage,20654,7.0078547,80.5327324
862,Kandy,Pattitalawa,20511,7.1122455,80.4722817
863,Kandy,Peradeniya,20400,7.2698653,80.593833
864,Kandy,Pilimatalawa,20450,7.258844,80.5402589
865,Kandy,Poholiyadda,20106,7.2490284,80.6506149
866,Kandy,Pubbiliya,21502,7.3862878,80.4840974
867,Kandy,Pupuressa,20546,7.1435886,80.6715317
868,Kandy,Pussellawa,20580,7.1109827,80.6382413
869,Kandy,Putuhapuwa,20906,7.3359253,80.7560834
870,Kandy,Rajawella,20180,7.2963549,80.7301035
871,Kandy,Rambukpitiya,20676,8.5661111,80.2263889
872,Kandy,Rambukwella,20128,7.2910047,80.7782463
873,Kandy,Rangala,20922,7.3229753,80.7754763
874,Kandy,Rantembe,20990,7.1996059,80.9496288
875,Kandy,Sangarajapura,20044,7.321727,80.5182535
876,Kandy,Senarathwela,20904,7.2827172,80.7643952
877,Kandy,Talatuoya,20200,7.2477619,80.6853986
878,Kandy,Teldeniya,20900,7.3153819,80.7449309
879,Kandy,Tennekumbura,20166,7.2832756,80.6618234
880,Kandy,Uda Peradeniya,20404,7.2639942,80.6038495
881,Kandy,Udahentenna,20506,7.0959259,80.5227928
882,Kandy,Udatalawinna,20802,7.3417496,80.6507268
883,Kandy,Udispattuwa,20916,7.3141577,80.7848247
884,Kandy,Ududumbara,20950,7.3143863,80.8779038
885,Kandy,Uduwahinna,20934,7.2905715,80.6337262
886,Kandy,Uduwela,20164,7.2625716,80.6330095
887,Kandy,Ulapane,20562,7.0987645,80.5605111
888,Kandy,Unuwinna,20708,7.2052276,80.7687914
889,Kandy,Velamboda,20640,7.2009637,80.5480118
890,Kandy,Watagoda,22110,7.3952386,80.5910567
891,Kandy,Watagoda Harispattuwa,20134,7.3952386,80.5910567
892,Kandy,Wattappola,20454,7.2341176,80.541067
893,Kandy,Weligampola,20666,7.0421007,80.5188396
894,Kandy,Wendaruwa,20914,7.2651146,80.8170167
895,Kandy,Weragantota,20982,7.3299144,80.985726
896,Kandy,Werapitya,20908,7.3645478,80.751382
897,Kandy,Werellagama,20080,7.3157789,80.579505
898,Kandy,Wettawa,20108,7.3643741,80.5116078
899,Kandy,Yahalatenna,20234,7.31478,80.5710906
900,Kandy,Yatihalagala,20034,7.2944042,80.5967206
901,Kegalle,Alawala,11122,7.1981361,80.2864862
902,Kegalle,Alawatura,71204,7.133333,80.333333
903,Kegalle,Alawwa,60280,7.2954302,80.2366261
904,Kegalle,Algama,71607,7.1563247,80.165883
905,Kegalle,Alutnuwara,71508,6.6861457,80.7463852
906,Kegalle,Ambalakanda,71546,7.137673,80.44795
907,Kegalle,Ambulugala,71503,7.2367653,80.413178
908,Kegalle,Amitirigala,71320,7.0298848,80.1847167
909,Kegalle,Ampagala,71232,7.0799005,80.2906659
910,Kegalle,Anhandiya,60074,7.4617172,80.4820124
911,Kegalle,Anhettigama,71403,6.9242541,80.3770334
912,Kegalle,Aranayaka,71540,7.1496651,80.4649829
913,Kegalle,Aruggammana,71041,7.1162474,80.3095584
914,Kegalle,Batuwita,71321,6.746234,80.0395205
915,Kegalle,Beligala(Sab),71044,7.2784586,80.2909631
916,Kegalle,Belihuloya,70140,6.7145912,80.7872185
917,Kegalle,Berannawa,71706,7.0662755,80.402048
918,Kegalle,Bopitiya,60155,7.3201227,80.0786359
919,Kegalle,Bopitiya (SAB),71612,7.1682683,80.1958755
920,Kegalle,Boralankada,71418,6.9773499,80.3380213
921,Kegalle,Bossella,71208,7.1472707,80.3978738
922,Kegalle,Bulathkohupitiya,71230,7.1045281,80.336047
923,Kegalle,Damunupola,71034,7.192517,80.3352364
924,Kegalle,Debathgama,71037,7.1783054,80.4187425
925,Kegalle,Dedugala,71237,7.0955645,80.4048306
926,Kegalle,Deewala Pallegama,71022,7.1729253,80.3622046
927,Kegalle,Dehiowita,71400,6.9638948,80.264191
928,Kegalle,Deldeniya,71009,7.2823005,80.361689
929,Kegalle,Deloluwa,71401,7.2513317,80.3463754
930,Kegalle,Deraniyagala,71430,6.9349198,80.3380213
931,Kegalle,Dewalegama,71050,7.2773796,80.3185252
932,Kegalle,Dewanagala,71527,7.2180452,80.4729768
933,Kegalle,Dombemada,71115,7.3840963,80.3512482
934,Kegalle,Dorawaka,71601,7.1891081,80.2242624
935,Kegalle,Dunumala,71605,7.1473524,80.2126109
936,Kegalle,Galapitamada,71603,7.1393484,80.2347453
937,Kegalle,Galatara,71505,7.2513317,80.3463754
938,Kegalle,Galigamuwa Town,71350,7.2359407,80.3115612
939,Kegalle,Gallella,70062,6.7077985,80.4966062
940,Kegalle,Galpatha(Sab),71312,7.0531074,80.2795195
941,Kegalle,Gantuna,71222,7.1274682,80.4048306
942,Kegalle,Getahetta,70620,6.9058496,80.2266312
943,Kegalle,Godagampola,70556,6.8809793,80.3172952
944,Kegalle,Gonagala,71318,7.0181102,80.2093537
945,Kegalle,Hakahinna,71352,7.2070497,80.3017042
946,Kegalle,Hakbellawaka,71715,6.9945504,80.3244362
947,Kegalle,Halloluwa,20032,7.3018682,80.593833
948,Kegalle,Hedunuwewa,22024,7.056778,80.6535011
949,Kegalle,Hemmatagama,71530,7.1733601,80.5007755
950,Kegalle,Hewadiwela,71108,7.3706708,80.3783916
951,Kegalle,Hingula,71520,7.2479128,80.468111
952,Kegalle,Hinguralakanda,71417,6.9132347,80.278303
953,Kegalle,Hingurana,32010,7.2269176,81.6747295
954,Kegalle,Hiriwadunna,71014,7.2874549,80.3846542
955,Kegalle,Ihala Walpola,80134,7.3484975,80.402048
956,Kegalle,Ihalagama,70144,7.222364,80.2772435
957,Kegalle,Imbulana,71313,7.0724127,80.2502535
958,Kegalle,Imbulgasdeniya,71055,7.30986,80.3183511
959,Kegalle,Kabagamuwa,71202,7.136413,80.3397618
960,Kegalle,Kahapathwala,60062,7.393882,80.4646353
961,Kegalle,Kandaketya,90020,7.2508167,80.371457
962,Kegalle,Kannattota,71372,7.0947226,80.2822811
963,Kegalle,Karagahinna,21014,7.2070497,80.3017042
964,Kegalle,Kegalle,71000,7.2513317,80.3463754
965,Kegalle,Kehelpannala,71533,7.166603,80.519245
966,Kegalle,Ketawala Leula,20198,7.26166,80.6805455
967,Kegalle,Kitulgala,71720,6.9897845,80.4270885
968,Kegalle,Kondeniya,71501,7.2720556,80.3811751
969,Kegalle,Kotiyakumbura,71370,7.1243401,80.2871828
970,Kegalle,Lewangama,71315,7.1074358,80.2421672
971,Kegalle,Mahabage,71722,7.0220934,80.4493405
972,Kegalle,Makehelwala,71507,7.2819386,80.4701964
973,Kegalle,Malalpola,71704,7.0516692,80.3380213
974,Kegalle,Maldeniya,22021,6.9359566,80.2760318
975,Kegalle,Maliboda,71411,6.8905922,80.439606
976,Kegalle,Maliyadda,90022,6.9005123,79.8684227
977,Kegalle,Malmaduwa,71325,7.1367773,80.2781262
978,Kegalle,Marapana,70041,6.6589558,80.4298704
979,Kegalle,Mawanella,71500,7.2310305,80.4776714
980,Kegalle,Meetanwala,60066,7.2513317,80.3463754
981,Kegalle,Migastenna Sabara,71716,7.2522704,80.3396385
982,Kegalle,Miyanawita,71432,6.8861302,80.361785
983,Kegalle,Molagoda,71016,7.2597954,80.398848
984,Kegalle,Morontota,71220,7.1757188,80.3589049
985,Kegalle,Narangala,90064,7.173944,80.434364
986,Kegalle,Narangoda,60152,7.1970128,80.2962385
987,Kegalle,Nattarampotha,20194,7.2808376,80.6729185
988,Kegalle,Nelundeniya,71060,7.2308443,80.26001
989,Kegalle,Niyadurupola,71602,7.1675189,80.2184025
990,Kegalle,Noori,71407,6.9448541,80.4027436
991,Kegalle,Pannila,12114,6.8683966,80.324096
992,Kegalle,Pattampitiya,71130,7.3118239,80.4353499
993,Kegalle,Pilawala,20196,7.3014952,80.3867417
994,Kegalle,Pothukoladeniya,71039,7.1674771,80.3150433
995,Kegalle,Puswelitenna,60072,7.2508167,80.371457
996,Kegalle,Rambukkana,71100,7.2792272,80.3833803
997,Kegalle,Rilpola,90026,6.9546193,81.064568
998,Kegalle,Rukmale,11129,6.8524683,79.9803415
999,Kegalle,Ruwanwella,71300,7.0458735,80.2537063
1000,Kegalle,Samanalawewa,70142,6.675005,80.7865558
1001,Kegalle,Seaforth Colony,71708,7.2513317,80.3463754
1002,Colombo,Colombo 2,00200,6.9199331,79.8540274
1003,Kegalle,Spring Valley,90028,7.2513317,80.3463754
1004,Kegalle,Talgaspitiya,71541,7.1737956,80.4765543
1005,Kegalle,Teligama,71724,7.2513317,80.3463754
1006,Kegalle,Tholangamuwa,71619,7.2378107,80.2355468
1007,Kegalle,Thotawella,71106,7.236394,80.314955
1008,Kegalle,Udaha Hawupe,70154,7.2513317,80.3463754
1009,Kegalle,Udapotha,71236,7.0975869,80.3742163
1010,Kegalle,Uduwa,20052,7.1085668,80.3909164
1011,Kegalle,Undugoda,71200,7.139777,80.3575128
1012,Kegalle,Ussapitiya,71510,7.2161602,80.4465594
1013,Kegalle,Wahakula,71303,7.0675198,80.2070328
1014,Kegalle,Waharaka,71304,7.0794637,80.1988393
1015,Kegalle,Wanaluwewa,11068,7.2513317,80.3463754
1016,Kegalle,Warakapola,71600,7.2268033,80.1958755
1017,Kegalle,Watura,71035,7.2513317,80.3463754
1018,Kegalle,Weeoya,71702,7.0632213,80.3357139
1019,Kegalle,Wegalla,71234,7.2513317,80.3463754
1020,Kegalle,Weligalla,20610,7.1888765,80.5914038
1021,Kegalle,Welihelatenna,71712,7.2831171,80.3845433
1022,Kegalle,Wewelwatta,70066,6.7052659,80.4761054
1023,Kegalle,Yatagama,71116,7.3301056,80.3578492
1024,Kegalle,Yatapana,71326,7.1315874,80.3075639
1025,Kegalle,Yatiyantota,71700,7.0288824,80.2955419
1026,Kegalle,Yattogoda,71029,7.2443374,80.2683718
1027,Kilinochchi,Kandavalai,42508,9.4090998,80.5218661
1029,Kilinochchi,Kilinochchi,42400,9.3802886,80.3769999
1030,Kilinochchi,Pachchilaipalli,42550,9.5673228,80.3881333
1031,Kilinochchi,Poonakary,42600,9.5033109,80.2112164
1032,Kandy,Akurana,20850,7.3688959,80.6131225
1033,Kurunegala,Alahengama,60416,7.4817695,80.3608876
1034,Kurunegala,Alahitiyawa,60182,7.4620509,80.0437123
1035,Kurunegala,Ambakote,60036,7.4939428,80.4576835
1036,Kurunegala,Ambanpola,60650,7.9181144,80.2404959
1037,Kurunegala,Andiyagala,50112,7.4666671,80.1333329
1038,Kurunegala,Anukkane,60214,7.5025804,80.1233175
1039,Kurunegala,Aragoda,60308,7.3646722,80.3477676
1040,Kurunegala,Ataragalla,60706,7.9180416,80.2948453
1041,Kurunegala,Awulegama,60462,7.4817695,80.3608876
1042,Kurunegala,Balalla,60604,7.8070926,80.2542698
1043,Kurunegala,Bamunukotuwa,60347,7.5708874,80.2474657
1044,Kurunegala,Bandara Koswatta,60424,7.6120712,80.1749516
1045,Kurunegala,Bingiriya,60450,7.5982234,79.937219
1046,Kurunegala,Bogamulla,60107,7.4572247,80.1679799
1047,Kurunegala,Boraluwewa,60437,7.6850623,80.0447602
1048,Kurunegala,Boyagane,60027,7.449993,80.3421984
1049,Kurunegala,Bujjomuwa,60291,7.2736138,80.2056382
1050,Kurunegala,Buluwala,60076,7.480418,80.4733029
1051,Kurunegala,Dadayamtalawa,32046,7.4817695,80.3608876
1052,Kurunegala,Dambadeniya,60130,7.3697147,80.1512317
1053,Kurunegala,Daraluwa,60174,7.3553188,79.9836108
1054,Kurunegala,Deegalla,60228,7.5112438,80.0339312
1055,Kurunegala,Demataluwa,60024,7.5178665,80.2879756
1056,Kurunegala,Demuwatha,70332,7.4868473,80.3651492
1057,Kurunegala,Diddeniya,60544,7.6990485,80.4605036
1058,Kurunegala,Digannewa,60485,7.8933155,80.1009796
1059,Kurunegala,Divullegoda,60472,7.7626649,80.2016335
1060,Kurunegala,Diyasenpura,51504,8.1323655,81.0205985
1061,Kurunegala,Dodangaslanda,60530,7.5756774,80.524397
1062,Kurunegala,Doluwa,20532,7.6215647,80.4187425
1063,Kurunegala,Doragamuwa,20816,7.3658955,80.6562753
1064,Kurunegala,Doratiyawa,60013,7.4534626,80.3940473
1065,Kurunegala,Dunumadalawa,50214,7.2809096,80.6422239
1066,Kurunegala,Dunuwilapitiya,21538,7.4817695,80.3608876
1067,Kurunegala,Ehetuwewa,60716,7.9356761,80.3461876
1068,Kurunegala,Elibichchiya,60156,7.3142991,80.0562864
1069,Kurunegala,Embogama,60718,7.8233009,80.324096
1070,Kurunegala,Etungahakotuwa,60266,7.5122353,79.9677049
1071,Kurunegala,Galadivulwewa,50210,7.4817695,80.3608876
1072,Kurunegala,Galgamuwa,60700,7.9864944,80.2878794
1073,Kurunegala,Gallellagama,20095,7.4817695,80.3608876
1074,Kurunegala,Gallewa,60712,7.8870117,80.0618743
1075,Kurunegala,Ganegoda,80440,7.633268,80.463245
1076,Kurunegala,Girathalana,60752,8.0347611,80.4103776
1077,Kurunegala,Gokaralla,60522,7.5988685,80.4827074
1078,Kurunegala,Gonawila,60170,7.3988063,80.2000596
1079,Kurunegala,Halmillawewa,60441,7.7707563,80.4938267
1080,Kurunegala,Handungamuwa,21536,7.4817695,80.3608876
1081,Kurunegala,Harankahawa,20092,7.4817695,80.3608876
1082,Kurunegala,Helamada,71046,7.4817695,80.3608876
1083,Kurunegala,Hengamuwa,60414,7.7003578,80.1121493
1084,Kurunegala,Hettipola,60430,7.5331124,80.9152434
1085,Kurunegala,Hewainna,10714,6.8975582,80.1958755
1086,Kurunegala,Hilogama,60486,7.4817695,80.3608876
1087,Kurunegala,Hindagolla,60034,7.4866705,80.4160783
1088,Kurunegala,Hiriyala Lenawa,60546,7.6388737,80.4743669
1089,Kurunegala,Hiruwalpola,60458,7.5477803,79.9374582
1090,Kurunegala,Horambawa,60181,7.4572247,80.1679799
1091,Kurunegala,Hulogedara,60474,7.7895443,80.1908182
1092,Kurunegala,Hulugalla,60477,7.5924375,80.5799531
1093,Kurunegala,Ihala Gomugomuwa,60211,7.4703895,80.0453231
1094,Kurunegala,Ihala Katugampala,60135,7.3947037,80.0987505
1095,Kurunegala,Indulgodakanda,60016,7.4233668,80.4076132
1096,Kurunegala,Ithanawatta,60025,7.4817695,80.3608876
1097,Kurunegala,Kadigawa,60492,7.7191983,80.0007142
1098,Kurunegala,Kalankuttiya,50174,7.4868473,80.3651492
1099,Kurunegala,Kalatuwawa,10718,6.85,80.2
1100,Kurunegala,Kalugamuwa,60096,7.392159,80.4465594
1101,Kurunegala,Kanadeniyawala,60054,7.4381399,80.5339344
1102,Kurunegala,Kanattewewa,60422,7.6185216,80.2070329
1103,Kurunegala,Kandegedara,90070,7.3529545,80.20773
1104,Kurunegala,Karagahagedara,60106,7.4778593,80.2126109
1105,Kurunegala,Karambe,60602,7.8075691,80.3408061
1106,Kurunegala,Katiyawa,50261,7.6268738,80.5501218
1107,Kurunegala,Katupota,60350,7.5505345,80.1908642
1108,Kurunegala,Kawudulla,51414,8.1610181,80.9138626
1109,Kurunegala,Kawuduluwewa Stagell,51514,7.4817695,80.3608876
1110,Kurunegala,Kekunagolla,60183,7.4983647,80.1735565
1111,Kurunegala,Keppitiwalana,60288,7.3225771,80.1902963
1112,Kurunegala,Kimbulwanaoya,60548,7.4817695,80.3608876
1113,Kurunegala,Kirimetiyawa,60184,7.5123431,80.1414627
1114,Kurunegala,Kirindawa,60212,7.4967323,80.1009796
1115,Kurunegala,Kirindigalla,60502,7.5532881,80.4799273
1116,Kurunegala,Kithalawa,60188,7.4593359,80.1009796
1117,Kurunegala,Kitulwala,11242,7.5063278,80.5355107
1118,Kurunegala,Kobeigane,60410,7.6605768,80.1266159
1119,Kurunegala,Kohilagedara,60028,7.4058609,80.338539
1120,Kurunegala,Konwewa,60630,7.9849842,80.2809129
1121,Kurunegala,Kosdeniya,60356,7.5726027,80.1456496
1122,Kurunegala,Kosgolla,60029,7.401018,80.3930037
1123,Kurunegala,Kotagala,22080,6.9296806,80.6049374
1124,Colombo,Colombo 13,01300,6.9487664,79.8604831
1125,Kurunegala,Kotawehera,60483,7.8090007,80.0779773
1126,Kurunegala,Kudagalgamuwa,60003,7.557008,80.3449831
1127,Kurunegala,Kudakatnoruwa,60754,7.4817695,80.3608876
1128,Kurunegala,Kuliyapitiya,60200,7.472123,80.0446221
1129,Kurunegala,Kumaragama,51412,7.4817695,80.3608876
1130,Kurunegala,Kumbukgeta,60508,7.6724218,80.4159603
1131,Kurunegala,Kumbukwewa,60506,7.6405056,80.4270885
1132,Kurunegala,Kuratihena,60438,7.4817695,80.3608876
1133,Kurunegala,Kurunegala,60000,7.4948369,80.3783842
1134,Kurunegala,Ibbagamuwa,60500,7.5554101,80.456443
1135,Kurunegala,Ihala Kadigamuwa,60238,7.4415547,80.0227514
1136,Kurunegala,Lihiriyagama,61138,7.3475559,79.9346603
1137,Kurunegala,Illagolla,20724,7.1673697,80.8173364
1138,Kurunegala,Ilukhena,60232,7.5304271,80.0022567
1139,Kurunegala,Lonahettiya,60108,7.5115471,80.2251603
1140,Kurunegala,Madahapola,60552,7.4505199,80.1943397
1141,Kurunegala,Madakumburumulla,60209,7.4462604,79.9947956
1142,Kurunegala,Madalagama,70158,7.343168,80.3094719
1143,Kurunegala,Madawala Ulpotha,21074,7.6155983,80.6354665
1144,Kurunegala,Maduragoda,60532,7.5763802,80.5493071
1145,Kurunegala,Maeliya,60512,7.7475284,80.4159603
1146,Kurunegala,Magulagama,60221,7.6706375,80.2181886
1147,Kurunegala,Maha Ambagaswewa,51518,8.2097853,81.0353202
1148,Kurunegala,Mahagalkadawala,60731,8.0563911,80.2823063
1149,Kurunegala,Mahagirilla,60479,7.8292354,80.1375299
1150,Kurunegala,Mahamukalanyaya,60516,7.5626526,80.4187425
1151,Kurunegala,Mahananneriya,60724,8.0015811,80.1861116
1152,Kurunegala,Mahapallegama,71063,7.0999524,80.2077784
1153,Kurunegala,Maharachchimulla,60286,7.3496056,80.2070328
1154,Kurunegala,Mahatalakolawewa,51506,7.4817695,80.3608876
1155,Kurunegala,Mahawewa,61220,7.4598054,79.8263169
1156,Kurunegala,Maho,60600,7.8193947,80.2711588
1157,Kurunegala,Makulewa,60714,7.9959459,80.3463754
1158,Kurunegala,Makulpotha,60514,7.7441603,80.4451687
1159,Kurunegala,Makulwewa,60578,7.6096126,80.363081
1160,Kurunegala,Malagane,60404,7.5939817,80.0713031
1161,Kurunegala,Mandapola,60434,7.6359413,80.1065646
1162,Kurunegala,Maspotha,60344,7.4817695,80.3608876
1163,Kurunegala,Mawathagama,60060,7.4369013,80.4537828
1164,Kurunegala,Medirigiriya,51500,8.1396374,80.9677658
1165,Kurunegala,Medivawa,60612,7.4817695,80.3608876
1166,Kurunegala,Meegalawa,60750,8.0527154,80.3547286
1167,Kurunegala,Meegaswewa,51508,7.8029615,80.3742163
1168,Kurunegala,Meewellawa,60484,7.7506098,80.1160173
1169,Kurunegala,Melsiripura,60540,7.6449706,80.5077237
1170,Kurunegala,Metikumbura,60304,7.4817695,80.3608876
1171,Kurunegala,Metiyagane,60121,7.3947649,80.1903442
1172,Kurunegala,Minhettiya,60004,7.5889727,80.308079
1173,Kurunegala,Minuwangete,60406,7.5072188,80.3429088
1174,Kurunegala,Mirihanagama,60408,7.6532928,80.1798159
1175,Kurunegala,Monnekulama,60495,7.8225592,80.0618743
1176,Kurunegala,Moragane,60354,7.5467823,80.1275052
1177,Kurunegala,Moragollagama,60640,7.9066295,80.4409967
1178,Kurunegala,Morathiha,60038,7.5107156,80.491047
1179,Kurunegala,Munamaldeniya,60218,7.5478683,80.0576834
1180,Kurunegala,Muruthenge,60122,7.4376161,80.1443598
1181,Kurunegala,Mutugala,51064,7.4881893,80.3503722
1182,Kurunegala,Nabadewa,60482,7.7816169,80.1042379
1183,Kurunegala,Nagollagama,60590,7.7535168,80.314672
1184,Kurunegala,Nagollagoda,60226,7.563528,80.0409178
1185,Kurunegala,Nakkawatta,60186,7.4443143,80.1456496
1186,Kurunegala,Narammala,60100,7.4325133,80.2153998
1187,Kurunegala,Nawasenapura,51066,7.4817695,80.3608876
1188,Kurunegala,Nawatalwatta,60292,7.2833403,80.1923699
1189,Kurunegala,Nelliya,60549,7.6922471,80.463245
1190,Kurunegala,Nikaweratiya,60470,7.755445,80.1191402
1191,Kurunegala,Nugagolla,21534,7.4817695,80.3608876
1192,Kurunegala,Nugawela,20072,7.3339719,80.223766
1193,Kurunegala,Padeniya,60461,7.6556225,80.2206287
1194,Kurunegala,Padiwela,60236,7.5422904,79.9892034
1195,Kurunegala,Pahalagiribawa,60735,8.1175649,80.1916911
1196,Kurunegala,Pahamune,60112,7.4809848,80.4122508
1197,Kurunegala,Palagala,50111,7.947466,80.520229
1198,Kurunegala,Palapathwela,21070,7.5377383,80.6271415
1199,Kurunegala,Palaviya,61280,7.9812432,79.8464804
1200,Kurunegala,Pallewela,11150,7.4782981,79.9947956
1201,Kurunegala,Palukadawala,60704,7.9570835,80.2962385
1202,Kurunegala,Panadaragama,60348,7.5430443,80.2286459
1203,Kurunegala,Panagamuwa,60052,7.4899187,80.5188396
1204,Kurunegala,Panaliya,60312,7.3309356,80.3296664
1205,Kurunegala,Panapitiya,70152,7.4817695,80.3608876
1206,Kurunegala,Panliyadda,60558,7.6726393,80.5466229
1207,Kurunegala,Pansiyagama,60554,7.7352119,80.4968661
1208,Kurunegala,Parape,71105,7.3725791,80.4149325
1209,Kurunegala,Pathanewatta,90071,7.4817695,80.3608876
1210,Kurunegala,Pattiya Watta,20118,7.4817695,80.3608876
1211,Kurunegala,Perakanatta,21532,7.4817695,80.3608876
1212,Kurunegala,Periyakadneluwa,60518,7.4817695,80.3608876
1213,Kurunegala,Pihimbiya Ratmale,60439,7.5768214,80.0331345
1214,Kurunegala,Pihimbuwa,60053,7.4590794,80.5146713
1215,Kurunegala,Pilessa,60058,7.4615469,80.4124824
1216,Kurunegala,Polgahawela,60300,7.3274866,80.2934522
1217,Kurunegala,Polgolla,20250,7.3164228,80.6521139
1218,Kurunegala,Polpithigama,60620,7.8211511,80.4062219
1219,Kurunegala,Pothuhera,60330,7.4216724,80.3296664
1220,Kurunegala,Pothupitiya,70338,7.3542046,80.1735565
1221,Kurunegala,Pujapitiya,20112,7.4981334,80.3843186
1222,Kurunegala,Rakwana,70300,6.4647237,80.6160402
1223,Kurunegala,Ranorawa,50212,7.6008794,80.2126109
1224,Kurunegala,Rathukohodigala,20818,7.4817695,80.3608876
1225,Kurunegala,Ridibendiella,60606,7.4817695,80.3608876
1226,Kurunegala,Ridigama,60040,7.5496347,80.4913754
1227,Kurunegala,Saliya Asokapura,60736,8.1346997,80.1887936
1228,Kurunegala,Sandalankawa,60176,7.3151015,79.9595718
1229,Kurunegala,Sevanapitiya,51062,7.4817695,80.3608876
1230,Kurunegala,Sirambiadiya,61312,8.0571261,79.8688837
1231,Kurunegala,Sirisetagama,60478,7.4817695,80.3608876
1232,Kurunegala,Siyambalangamuwa,60646,7.5294805,80.342853
1233,Kurunegala,Siyambalawewa,32048,7.8042275,80.4298704
1234,Kurunegala,Solepura,60737,8.1531272,80.1568134
1235,Kurunegala,Solewewa,60738,8.1470521,80.128901
1236,Kurunegala,Sunandapura,60436,7.6365956,80.0723592
1237,Kurunegala,Talawattegedara,60306,7.4817695,80.3608876
1238,Kurunegala,Tambutta,60734,8.087401,80.2265545
1239,Kurunegala,Tennepanguwa,90072,7.4817695,80.3608876
1240,Kurunegala,Thalahitimulla,60208,7.4305001,80.005979
1241,Kurunegala,Thalakolawewa,60624,7.7949212,80.4340429
1242,Kurunegala,Thalwita,60572,7.5822173,80.3352364
1243,Kurunegala,Tharana Udawela,60227,7.5600143,79.9941051
1244,Kurunegala,Thimbiriyawa,60476,7.7492625,80.1400671
1245,Kurunegala,Tisogama,60453,7.5905598,79.8320966
1246,Kurunegala,Thorayaya,60499,7.5087493,80.4068469
1247,Kurunegala,Tulhiriya,71610,7.2753384,80.223766
1248,Kurunegala,Tuntota,71062,7.1931891,80.265062
1249,Kurunegala,Tuttiripitigama,60426,7.4817695,80.3608876
1250,Kurunegala,Udagaldeniya,71113,7.4174756,80.475062
1251,Kurunegala,Udahingulwala,20094,7.4817695,80.3608876
1252,Kurunegala,Udawatta,20722,7.4894947,80.3609307
1253,Kurunegala,Udubaddawa,60250,7.4852925,79.9675366
1254,Kurunegala,Udumulla,71521,7.4653167,80.4205682
1255,Kurunegala,Uhumiya,60094,7.4639242,80.2985345
1256,Kurunegala,Ulpotha Pallekele,60622,7.8265229,80.4372213
1257,Kurunegala,Ulpothagama,20965,7.4817695,80.3608876
1258,Kurunegala,Usgala Siyabmalangamuwa,60732,8.0982645,80.2948696
1259,Kurunegala,Vijithapura,50110,7.4817695,80.3608876
1260,Kurunegala,Wadakada,60318,7.3975408,80.268734
1261,Kurunegala,Wadumunnegedara,60204,7.398108,79.9773981
1262,Kurunegala,Walakumburumulla,60198,7.4254026,80.0155817
1263,Kurunegala,Wannigama,60465,7.7078005,80.144254
1264,Kurunegala,Wannikudawewa,60721,8.0339687,80.2174914
1265,Kurunegala,Wannilhalagama,60722,7.4817695,80.3608876
1266,Kurunegala,Wannirasnayakapura,60490,7.4817695,80.3608876
1267,Kurunegala,Warawewa,60739,8.1204937,80.1456496
1268,Kurunegala,Wariyapola,60400,7.6239144,80.2433145
1269,Kurunegala,Watareka,10511,7.3972603,80.4354337
1270,Kurunegala,Wattegama,20810,7.3503313,80.6812468
1271,Kurunegala,Watuwatta,60262,7.5083068,79.9172803
1272,Kurunegala,Weerapokuna,60454,7.6513501,79.9889056
1273,Kurunegala,Welawa Juncton,60464,7.6901219,80.1745355
1274,Kurunegala,Welipennagahamulla,60240,7.4313154,79.9275756
1275,Kurunegala,Wellagala,60402,7.6222222,80.2766667
1276,Kurunegala,Wellarawa,60456,7.5569221,80.3691879
1277,Kurunegala,Wellawa,60570,7.5615466,80.3686488
1278,Kurunegala,Welpalla,60206,7.3654786,79.9612368
1279,Kurunegala,Wennoruwa,60284,7.3804956,80.2167942
1280,Kurunegala,Weuda,60080,7.4065254,80.4938267
1281,Kurunegala,Wewagama,60195,7.4233259,80.1023759
1282,Kurunegala,Wilgamuwa,21530,7.3609928,80.2053639
1283,Kurunegala,Yakwila,60202,7.381869,80.0381232
1284,Kurunegala,Yatigaloluwa,60314,7.3297305,80.2739458
1285,Mannar,Mannar,41000,8.9809743,79.9044149
1286,Mannar,Puthukudiyiruppu,30158,9.0603894,79.8473091
1287,Matale,Akuramboda,21142,7.65,80.6
1288,Matale,Alawatuwala,60047,7.4576549,80.6242599
1289,Matale,Alwatta,21004,7.448908,80.6645973
1290,Matale,Ambana,21504,7.6476603,80.6923312
1291,Matale,Aralaganwila,51100,7.7827819,81.1845426
1292,Matale,Ataragallewa,21512,7.467465,80.6234161
1293,Matale,Bambaragaswewa,21212,7.7860914,80.5329166
1294,Matale,Barawardhana Oya,20967,7.467465,80.6234161
1295,Matale,Beligamuwa,21214,7.7273721,80.549748
1296,Matale,Damana,32014,7.467465,80.6234161
1297,Matale,Dambulla,21100,7.874217,80.6511287
1298,Matale,Damminna,51106,7.7502371,81.2167377
1299,Matale,Dankanda,21032,7.5347288,80.7010927
1300,Matale,Delwite,60044,7.4709715,80.6230621
1301,Matale,Devagiriya,21552,7.467465,80.6234161
1302,Matale,Dewahuwa,21206,7.8438612,80.5785621
1303,Matale,Divuldamana,51104,7.467465,80.6234161
1304,Matale,Dullewa,21054,7.5144218,80.6007734
1305,Matale,Dunkolawatta,21046,7.467465,80.6234161
1306,Matale,Elkaduwa,21012,7.4172376,80.6840121
1307,Matale,Erawula Junction,21108,7.467465,80.6234161
1308,Matale,Etanawala,21402,7.467465,80.6234161
1309,Matale,Galewela,21200,7.7565045,80.5771737
1310,Matale,Galoya Junction,51375,7.467465,80.6234161
1311,Matale,Gammaduwa,21068,7.5702262,80.6970969
1312,Matale,Gangala Puwakpitiya,21404,7.5882467,80.7549674
1313,Matale,Hasalaka,20960,7.4680228,80.6248266
1314,Matale,Hattota Amuna,21514,7.6122478,80.8275506
1315,Matale,Imbulgolla,21064,7.5668121,80.6669211
1316,Matale,Inamaluwa,21124,7.9242499,80.6840121
1317,Matale,Iriyagolla,60045,7.467465,80.6234161
1318,Matale,Kaikawala,21066,7.5076989,80.6618234
1319,Matale,Kalundawa,21112,7.8033546,80.6696034
1320,Matale,Kandalama,21106,7.8884985,80.7103532
1321,Matale,Kavudupelella,21072,7.5802077,80.6265808
1322,Matale,Kibissa,21122,7.9373285,80.7269854
1323,Matale,Kiwula,21042,7.4634749,80.6264477
1324,Matale,Kongahawela,21500,7.6897523,80.7158977
1325,Matale,Laggala Pallegama,21520,7.5965337,80.8367834
1326,Matale,Leliambe,21008,7.4225079,80.6571008
1327,Matale,Lenadora,21094,7.7555173,80.66165
1328,Matale,Ihala Halmillewa,50262,8.1363774,80.3575128
1329,Matale,Illukkumbura,21406,7.544131,80.8017877
1330,Matale,Madipola,51108,7.6761154,80.5827272
1332,Matale,Mahawela,21140,7.5801417,80.6113806
1333,Matale,Mananwatta,21144,7.6845891,80.6021614
1334,Matale,Maraka,21554,7.5855372,80.9656181
1335,Matale,Matale,21000,7.467465,80.6234161
1336,Matale,Melipitiya,21055,7.467465,80.6234161
1337,Matale,Metihakka,21062,7.5400973,80.6532201
1338,Matale,Millawana,21154,7.6499106,80.5754664
1339,Matale,Muwandeniya,21044,7.4547649,80.6409764
1340,Matale,Nalanda,21082,7.6697486,80.645856
1341,Matale,Naula,21090,7.7071493,80.6521139
1342,Matale,Opalgala,21076,7.6248986,80.6937177
1343,Matale,Pallepola,21152,7.6229762,80.6049374
1344,Matale,Pimburattewa,51102,7.7185503,81.1885293
1345,Matale,Pulastigama,51050,8.0421963,81.0809848
1346,Matale,Ranamuregama,21524,7.5029094,80.833034
1347,Matale,Rattota,21400,7.517273,80.6715317
1348,Matale,Selagama,21058,7.5920469,80.5940497
1349,Matale,Sigiriya,21120,7.9541085,80.754698
1350,Matale,Sinhagama,51378,7.467465,80.6234161
1351,Matale,Sungavila,51052,8.0748374,81.0920218
1352,Matale,Talagoda Junction,21506,7.7014477,80.7602394
1353,Matale,Talakiriyagama,21116,7.8253167,80.6208972
1354,Matale,Tamankaduwa,51089,7.467465,80.6234161
1355,Matale,Udasgiriya,21051,7.5351747,80.5702314
1356,Matale,Udatenna,21006,7.4287425,80.6475418
1357,Matale,Ukuwela,21300,7.4234623,80.6306103
1358,Matale,Wahacotte,21160,7.7190437,80.5827272
1359,Matale,Walawela,21048,7.5197143,80.5979973
1360,Matale,Wehigala,21009,7.4382265,80.6140685
1361,Matale,Welangahawatte,21408,7.549807,80.7542447
1362,Matale,Wewalawewa,21114,7.467465,80.6234161
1363,Matale,Yatawatta,21056,7.5634826,80.5876794
1364,Matara,Akuressa,81400,6.1001388,80.4759567
1365,Matara,Alapaladeniya,81475,6.283333,80.45
1366,Matara,Aparekka,81032,5.9925373,80.6160402
1367,Matara,Athuraliya,81402,6.0660707,80.5022764
1368,Matara,Bengamuwa,81614,6.2786139,80.6042639
1369,Matara,Bopagoda,81412,6.1586616,80.4995312
1370,Matara,Dampahala,81612,6.2715247,80.6401098
1371,Matara,Deegala Lenama,81452,6.1659804,80.4616475
1372,Matara,Deiyandara,81320,6.1525698,80.6028554
1373,Matara,Denagama,81314,6.1142107,80.6616445
1374,Matara,Denipitiya,81730,5.9828773,80.4518053
1375,Matara,Deniyaya,81500,6.3424847,80.5596582
1376,Matara,Derangala,81454,6.2189118,80.4500425
1377,Matara,Devinuwara (Dondra),81160,5.9312553,80.5914331
1378,Matara,Dikwella,81200,5.9716762,80.6951041
1379,Matara,Diyagaha,81038,5.9855185,80.5785601
1380,Matara,Diyalape,81422,6.1229542,80.4465594
1381,Matara,Gandara,81170,5.9376403,80.6132646
1382,Matara,Godapitiya,81408,6.0886604,80.4790866
1383,Matara,Gomilamawarala,81072,6.2100926,80.5922881
1384,Matara,Hawpe,80132,6.1328852,80.4896571
1385,Matara,Horapawita,81108,6.1070399,80.5827272
1386,Matara,Kalubowitiyana,81478,6.3116538,80.3937182
1387,Matara,Kamburugamuwa,81750,5.944587,80.4938344
1388,Matara,Kamburupitiya,81100,6.0779107,80.5632884
1389,Matara,Karagoda Uyangoda,81082,6.0520009,80.5282587
1390,Matara,Karaputugala,81106,6.0845296,80.6013403
1391,Matara,Karatota,81318,6.0641272,80.6660092
1392,Matara,Kekanadura,81020,5.9637528,80.6132646
1393,Matara,Kiriweldola,81514,6.3711505,80.5355107
1394,Matara,Kiriwelkele,81456,6.2422484,80.4507311
1395,Matara,Kolawenigama,81522,6.3232398,80.5021652
1396,Matara,Kotapola,81480,6.2779725,80.539678
1397,Matara,Lankagama,81526,6.3671372,80.4604643
1398,Matara,Makandura,81070,6.1419248,80.5563449
1399,Matara,Maliduwa,81424,6.1354339,80.4104743
1400,Matara,Maramba,81416,6.1455208,80.4823599
1401,Matara,Matara,81000,5.9495308,80.5303931
1402,Matara,Mediripitiya,81524,6.3507095,80.4930904
1403,Matara,Miella,81312,6.1179132,80.6716111
1404,Matara,Mirissa,81740,5.948262,80.4715866
1405,Matara,Morawaka,81470,6.2652802,80.491047
1406,Matara,Mulatiyana Junction,81071,6.1620886,80.5855038
1407,Matara,Nadugala,81092,5.9813659,80.5497101
1408,Matara,Naimana,81017,5.9634458,80.5658496
1409,Matara,Palatuwa,81050,5.9763124,80.5184418
1410,Matara,Parapamulla,81322,6.1516259,80.6218666
1411,Matara,Pasgoda,81615,6.2463916,80.6077132
1412,Matara,Penetiyana,81722,6.047728,80.4499474
1413,Matara,Pitabeddara,81450,6.2070773,80.463245
1414,Matara,Puhulwella,81290,6.0515288,80.6257539
1415,Matara,Radawela,81316,7.672758,80.709373
1416,Matara,Ransegoda,81064,6.1186298,80.5641507
1417,Matara,Rotumba,81074,6.225788,80.5759772
1418,Matara,Sultanagoda,81051,5.9772421,80.5109948
1419,Matara,Telijjawila,81060,6.0250846,80.4959114
1420,Matara,Thihagoda,81280,6.0133387,80.5660041
1421,Matara,Urubokka,81600,6.3065297,80.6306103
1422,Matara,Urugamuwa,81230,6.010073,80.6479524
1423,Matara,Urumutta,81414,6.1619598,80.5169252
1424,Matara,Viharahena,81508,6.3827697,80.6020234
1425,Matara,Walakanda,81294,6.0230505,80.6558658
1426,Matara,Walasgala,81220,5.9828401,80.6985701
1427,Matara,Waralla,81479,6.2763831,80.524397
1428,Matara,Weligama,81700,5.9730321,80.4228041
1429,Matara,Wilpita,81404,5.9460327,80.5577288
1430,Matara,Yatiyana,81034,6.0302713,80.6063253
1431,Monaragala,Ayiwela,91516,7.1070256,81.2504855
1432,Monaragala,Badalkumbura,91070,6.8955992,81.2363589
1433,Monaragala,Baduluwela,91058,6.9934009,81.0549815
1434,Monaragala,Bakinigahawela,91554,6.9982469,81.2850807
1435,Monaragala,Balaharuwa,91295,6.530849,81.0644263
1436,Monaragala,Bibile,91500,6.8608624,81.3502541
1437,Monaragala,Buddama,91038,7.040545,81.4888066
1438,Monaragala,Buttala,91100,6.7589233,81.2491298
1439,Monaragala,Dambagalla,91050,6.9499999,81.3666671
1440,Monaragala,Diyakobala,91514,7.1588473,81.1993404
1441,Monaragala,Dombagahawela,91010,6.9076487,81.5094194
1442,Monaragala,Ethimalewewa,91020,6.8111512,81.5020328
1443,Monaragala,Ettiliwewa,91250,6.8906454,81.3454417
1444,Monaragala,Galabedda,91008,6.9191139,81.385091
1445,Monaragala,Gamewela,90512,6.9246405,81.2053324
1446,Monaragala,Hambegamuwa,91308,6.5386336,80.9630156
1447,Monaragala,Hingurukaduwa,90508,6.8257456,81.1629841
1448,Monaragala,Hulandawa,91004,6.8546791,81.3385663
1449,Monaragala,Inginiyagala,91040,7.2138156,81.5431872
1450,Monaragala,Kandaudapanguwa,91032,6.9803464,81.54148
1451,Monaragala,Kandawinna,91552,6.8906454,81.3454417
1452,Monaragala,Kataragama,91400,6.4135463,81.3325679
1453,Monaragala,Kotagama,91512,7.1109888,81.1802619
1454,Monaragala,Kotamuduna,90506,6.8902261,81.1775059
1455,Monaragala,Kotawehera Mankada,91312,6.646907,80.9084755
1456,Monaragala,Kudawewa,61226,8.5622222,80.6938889
1457,Monaragala,Kumbukkana,91098,6.810595,81.3006668
1458,Monaragala,Marawa,91006,6.8090098,81.3811839
1459,Monaragala,Mariarawa,91052,6.9683781,81.4762043
1460,Monaragala,Medagana,91550,7.0344732,81.276004
1461,Monaragala,Medawelagama,90518,7.0344732,81.276004
1462,Monaragala,Miyanakandura,90584,6.8906454,81.3454417
1463,Monaragala,Monaragala,91000,6.8906454,81.3454417
1464,Monaragala,Moretuwegama,91108,6.8906454,81.3454417
1465,Monaragala,Nakkala,91003,6.8899962,81.2984309
1466,Monaragala,Namunukula,90580,6.8744787,81.1154703
1467,Monaragala,Nannapurawa,91519,7.0853701,81.2593133
1468,Monaragala,Nelliyadda,91042,7.3878558,81.4169093
1469,Monaragala,Nilgala,91508,7.1933379,81.3963901
1470,Monaragala,Obbegoda,91007,6.9250709,81.354086
1471,Monaragala,Okkampitiya,91060,6.750035,81.3076193
1472,Monaragala,Pangura,91002,6.9766866,81.3200893
1473,Monaragala,Pitakumbura,91505,7.1786936,81.293122
1474,Monaragala,Randeniya,91204,6.8015199,81.1140912
1475,Monaragala,Ruwalwela,91056,6.8610803,81.3391804
1476,Monaragala,Sella Kataragama,91405,6.4373285,81.2986767
1477,Monaragala,Siyambalagune,91202,6.8906454,81.3454417
1478,Monaragala,Siyambalanduwa,91030,6.9064636,81.5610138
1479,Monaragala,Suriara,91306,6.8906454,81.3454417
1480,Monaragala,Thanamalwila,91300,6.4397548,81.1333968
1481,Monaragala,Uva Gangodagama,91054,7.0198599,81.4333923
1482,Monaragala,Uva Kudaoya,91298,6.5327971,81.1747498
1483,Monaragala,Uva Pelwatta,91112,6.7447337,81.1967958
1484,Monaragala,Warunagama,91198,6.7323426,81.1340862
1485,Monaragala,Wedikumbura,91005,6.8955992,81.2363589
1486,Monaragala,Weherayaya Handapanagala,91206,6.6435903,81.118259
1487,Monaragala,Wellawaya,91200,6.7377356,81.1030573
1488,Monaragala,Wilaoya,91022,6.767782,81.6972166
1489,Monaragala,Yudaganawa,51424,6.7742508,81.2351131
1490,Mullaitivu,Mullativu,42000,9.2670911,80.814248
1491,Nuwara Eliya,Agarapathana,22094,6.8672431,80.7121754
1492,Nuwara Eliya,Ambatalawa,20686,7.05,80.6666669
1493,Nuwara Eliya,Ambewela,22216,6.8787195,80.8135558
1494,Nuwara Eliya,Bogawantalawa,22060,6.7972337,80.675692
1495,Nuwara Eliya,Bopattalawa,22095,6.809019,80.6959013
1496,Nuwara Eliya,Dagampitiya,20684,6.9774755,80.4743669
1497,Nuwara Eliya,Dayagama Bazaar,22096,6.8561299,80.7474261
1498,Nuwara Eliya,Dikoya,22050,6.8751313,80.6006772
1499,Nuwara Eliya,Doragala,20567,6.956273,80.784718
1500,Nuwara Eliya,Dunukedeniya,22002,6.9900282,80.6368539
1501,Nuwara Eliya,Egodawela,90013,6.9644836,80.7633599
1502,Nuwara Eliya,Ekiriya,20732,7.1482551,80.7543517
1503,Nuwara Eliya,Elamulla,20742,7.0566861,80.7684374
1504,Nuwara Eliya,Ginigathena,20680,6.9893171,80.4926933
1505,Nuwara Eliya,Gonakele,22226,6.9837958,80.7581585
1506,Nuwara Eliya,Haggala,22208,6.9186817,80.8310318
1507,Nuwara Eliya,Halgranoya,22240,7.0067834,80.8652038
1508,Nuwara Eliya,Hangarapitiya,22044,6.920407,80.4725565
1509,Nuwara Eliya,Hapugasthalawa,20668,7.0578134,80.5730084
1510,Nuwara Eliya,Harasbedda,22262,7.0626387,80.8820535
1511,Nuwara Eliya,Hatton,22000,6.8922153,80.5985765
1512,Nuwara Eliya,Hewaheta,20440,7.1118366,80.7633563
1513,Nuwara Eliya,Hitigegama,22046,6.9506076,80.4576835
1514,Nuwara Eliya,Jangulla,90063,6.9497166,80.7891068
1515,Nuwara Eliya,Kalaganwatta,22282,7.100639,80.8994579
1516,Nuwara Eliya,Kandapola,22220,7.0002512,80.818401
1517,Nuwara Eliya,Karandagolla,20738,7.0570194,80.9007245
1518,Nuwara Eliya,Keerthi Bandarapura,22274,7.1458998,80.853001
1519,Nuwara Eliya,Kiribathkumbura,20442,7.2696289,80.5757161
1520,Nuwara Eliya,Kotiyagala,91024,6.7855074,80.6853986
1521,Nuwara Eliya,Kotmale,20560,7.0223089,80.5910567
1522,Nuwara Eliya,Kottellena,22040,6.8931684,80.5021652
1523,Nuwara Eliya,Kumbalgamuwa,22272,7.1124839,80.8460822
1524,Nuwara Eliya,Kumbukwela,22246,7.0534652,80.8889692
1525,Nuwara Eliya,Kurupanawela,22252,7.0167262,80.9138608
1526,Nuwara Eliya,Labukele,20592,7.0243154,80.7190951
1527,Nuwara Eliya,Laxapana,22034,6.9247584,80.491047
1528,Nuwara Eliya,Lindula,22090,6.901898,80.6716524
1529,Nuwara Eliya,Madulla,22256,7.0194419,80.921301
1530,Nuwara Eliya,Mandaram Nuwara,20744,7.0420108,80.7796313
1531,Nuwara Eliya,Maskeliya,22070,6.8329294,80.5709256
1532,Nuwara Eliya,Maswela,20566,7.0639737,80.6330479
1533,Nuwara Eliya,Maturata,20748,6.9910874,80.8338012
1534,Nuwara Eliya,Mipanawa,22254,6.97314,80.76664
1535,Nuwara Eliya,Mipilimana,22214,6.9304568,80.7796313
1536,Nuwara Eliya,Morahenagama,22036,6.9457512,80.4799273
1537,Nuwara Eliya,Munwatta,20752,7.1157896,80.8114792
1538,Nuwara Eliya,Nayapana Janapadaya,20568,7.0665384,80.606533
1539,Nuwara Eliya,Nildandahinna,22280,7.0801197,80.8917353
1540,Nuwara Eliya,Nissanka Uyana,22075,6.9497166,80.7891068
1541,Nuwara Eliya,Norwood,22058,6.8384207,80.6146524
1542,Nuwara Eliya,Nuwara Eliya,22200,6.9479581,80.7885103
1543,Nuwara Eliya,Padiyapelella,20750,7.0935749,80.7983262
1544,Nuwara Eliya,Pallebowala,20734,7.1515047,80.7339144
1545,Nuwara Eliya,Panvila,20830,7.4004208,80.7329079
1546,Nuwara Eliya,Pitawala,20682,6.9983695,80.4576835
1547,Nuwara Eliya,Pundaluoya,22120,7.0131278,80.6632103
1548,Nuwara Eliya,Ramboda,20590,7.0565468,80.6938474
1549,Nuwara Eliya,Rikillagaskada,20730,7.1486516,80.7907103
1550,Nuwara Eliya,Rozella,22008,6.9276827,80.558546
1551,Nuwara Eliya,Rupaha,22245,7.0322593,80.9043234
1552,Nuwara Eliya,Ruwaneliya,22212,6.9420892,80.7768129
1553,Nuwara Eliya,Santhipura,22202,6.9789453,80.7477708
1554,Nuwara Eliya,Talawakele,22100,6.9387914,80.6632103
1555,Nuwara Eliya,Tawalantenna,20838,7.0706822,80.6840121
1556,Nuwara Eliya,Teripeha,22287,7.1140442,80.9144285
1557,Nuwara Eliya,Udamadura,22285,7.0965737,80.916626
1558,Nuwara Eliya,Udapussallawa,22250,7.0127123,80.9124781
1559,Nuwara Eliya,Uva Deegalla,90062,6.9497166,80.7891068
1560,Nuwara Eliya,Uva Uduwara,90061,6.9304421,81.0561458
1561,Nuwara Eliya,Uvaparanagama,90230,6.9497166,80.7891068
1562,Nuwara Eliya,Walapane,22270,7.1021663,80.8626864
1563,Nuwara Eliya,Watawala,22010,6.9449468,80.5389834
1564,Nuwara Eliya,Widulipura,22032,6.9094057,80.5188396
1565,Nuwara Eliya,Wijebahukanda,22018,6.9497166,80.7891068
1566,Polonnaruwa,Attanakadawala,51235,7.9330954,80.8702955
1567,Polonnaruwa,Bakamuna,51250,7.780602,80.818401
1568,Polonnaruwa,Diyabeduma,51225,7.9297432,80.8709872
1569,Polonnaruwa,Elahera,51258,7.734387,80.7934798
1570,Polonnaruwa,Giritale,51026,8.0023564,80.9249212
1571,Polonnaruwa,Hingurakdamana,51408,8.0415888,80.9532359
1572,Polonnaruwa,Hingurakgoda,51400,8.0415888,80.9532359
1573,Polonnaruwa,Jayanthipura,51024,7.9483156,81.0017827
1574,Polonnaruwa,Kalingaela,51002,7.9403384,81.0187984
1575,Polonnaruwa,Lakshauyana,51006,7.9905068,80.9995387
1576,Polonnaruwa,Mankemi,30442,7.9403384,81.0187984
1577,Polonnaruwa,Minneriya,51410,8.0386709,80.9063922
1578,Polonnaruwa,Onegama,51004,7.9776777,81.0920218
1579,Polonnaruwa,Orubendi Siyambalawa,51256,7.7536098,80.8128636
1580,Polonnaruwa,Palugasdamana,51046,7.9654599,81.0257763
1581,Polonnaruwa,Panichankemi,30444,7.9403384,81.0187984
1582,Polonnaruwa,Polonnaruwa,51000,7.9619141,80.9952353
1583,Polonnaruwa,Talpotha,51044,8.0314571,81.0340151
1584,Polonnaruwa,Tambala,51049,8.0093977,81.0697053
1585,Polonnaruwa,Unagalavehera,51008,8.0119043,80.9912514
1586,Polonnaruwa,Wijayabapura,51042,7.8227119,81.1856994
1587,Puttalam,Adippala,61012,7.6734366,79.8772834
1588,Puttalam,Alutgama,12080,7.566667,79.9
1589,Puttalam,Alutwewa,51014,7.983333,80.4
1590,Puttalam,Ambakandawila,61024,7.5275627,79.7936322
1591,Puttalam,Anamaduwa,61500,7.8777703,80.0111156
1592,Puttalam,Andigama,61508,7.7782889,79.9486489
1593,Puttalam,Angunawila,61264,7.7533988,79.8604831
1594,Puttalam,Attawilluwa,61328,7.9605599,79.8800832
1595,Puttalam,Bangadeniya,61238,7.6280562,79.8254722
1596,Puttalam,Baranankattuwa,61262,7.8019284,79.8716837
1597,Puttalam,Battuluoya,61246,7.73377,79.8240715
1598,Puttalam,Bujjampola,61136,7.3271638,79.9164717
1599,Puttalam,Chilaw,61000,7.5619894,79.8016569
1600,Puttalam,Dalukana,51092,8.0407913,79.839386
1601,Puttalam,Dankotuwa,61130,7.2974635,79.8821881
1602,Puttalam,Dewagala,51094,8.0407913,79.839386
1603,Puttalam,Dummalasuriya,60260,7.4924001,79.9108744
1604,Puttalam,Dunkannawa,61192,7.4186794,79.9100319
1605,Puttalam,Eluwankulama,61308,8.2730821,79.8800832
1606,Puttalam,Ettale,61343,8.0407913,79.839386
1607,Puttalam,Galamuna,51416,7.466168,79.8730837
1608,Puttalam,Galmuruwa,61233,7.5028245,79.8996789
1609,Puttalam,Hansayapalama,51098,8.0407913,79.839386
1610,Puttalam,Ihala Kottaramulla,61154,7.3782089,79.8758835
1611,Puttalam,Ilippadeniya,61018,7.5705986,79.8268729
1612,Puttalam,Inginimitiya,61514,7.9866848,79.9590808
1613,Puttalam,Ismailpuram,61302,8.0407913,79.839386
1614,Puttalam,Jayasiripura,51246,7.5756587,80.0451095
1615,Puttalam,Kakkapalliya,61236,7.5277156,79.82127
1616,Puttalam,Kalkudah,30410,8.1173684,79.7152334
1617,Puttalam,Kalladiya,61534,7.9904807,79.8940806
1618,Puttalam,Kandakuliya,61358,8.2037473,79.7007211
1619,Puttalam,Karathivu,61307,8.0407913,79.839386
1620,Puttalam,Karawitagara,61022,7.567081,79.8478808
1621,Puttalam,Karuwalagaswewa,61314,8.0565759,79.9556424
1622,Puttalam,Katuneriya,61180,7.3706207,79.8352767
1623,Puttalam,Koswatta,61158,7.3920608,79.9012671
1624,Puttalam,Kottantivu,61252,7.8616705,79.7904475
1625,Puttalam,Kottapitiya,51244,7.6358832,79.8170675
1626,Puttalam,Kottukachchiya,61532,7.9406915,79.9472502
1627,Puttalam,Kumarakattuwa,61032,7.6341108,79.8743263
1628,Puttalam,Kurinjanpitiya,61356,8.0407913,79.839386
1629,Puttalam,Kuruketiyawa,61516,8.0202778,80.0536111
1630,Puttalam,Lunuwila,61150,7.3558782,79.8726524
1631,Puttalam,Madampe,61230,7.4972336,79.8413319
1632,Puttalam,Madurankuliya,61270,7.9080663,79.82127
1633,Puttalam,Mahakumbukkadawala,61272,7.8478779,79.8856824
1634,Puttalam,Mahauswewa,61512,7.924126,80.0967906
1635,Puttalam,Mampitiya,51090,8.0407913,79.839386
1636,Puttalam,Mampuri,61341,8.0035373,79.7407256
1637,Puttalam,Mangalaeliya,61266,7.8599091,79.8204619
1638,Puttalam,Marawila,61210,7.4239428,79.8352767
1639,Puttalam,Mudalakkuliya,61506,7.9080663,79.82127
1640,Puttalam,Mugunuwatawana,61014,7.5833824,79.859083
1641,Puttalam,Mukkutoduwawa,61274,7.9183333,79.7602778
1642,Puttalam,Mundel,61250,7.7975587,79.8016569
1643,Puttalam,Muttibendiwila,61195,8.0407913,79.839386
1644,Puttalam,Nainamadama,61120,7.3148681,79.8436796
1645,Puttalam,Nalladarankattuwa,61244,7.6637171,79.8393034
1646,Puttalam,Nattandiya,61190,7.412487,79.859083
1647,Puttalam,Nawagattegama,61520,8.0012906,80.10379
1648,Puttalam,Nelumwewa,51096,8.0134902,79.870027
1649,Puttalam,Norachcholai,61342,8.0131676,79.7242393
1650,Puttalam,Pallama,61040,7.6843939,79.9257969
1651,Puttalam,Palliwasalturai,61354,8.0407913,79.839386
1652,Puttalam,Panirendawa,61234,7.4918844,79.8884819
1653,Puttalam,Parakramasamudraya,51016,7.89959,80.9705292
1654,Puttalam,Pothuwatawana,61162,7.3585411,79.9164712
1655,Puttalam,Puttalam,61300,8.0407913,79.839386
1656,Puttalam,Puttalam Cement Factory,61326,7.9878275,79.8681837
1657,Puttalam,Rajakadaluwa,61242,7.656449,79.8380778
1658,Puttalam,Saliyawewa Junction,61324,8.1934077,80.0939978
1659,Puttalam,Serukele,61042,7.7266149,79.9181332
1660,Puttalam,Siyambalagashene,61504,8.0407913,79.839386
1661,Puttalam,Tabbowa,61322,8.0861221,79.9263598
1662,Puttalam,Talawila Church,61344,8.1125436,79.7034586
1663,Puttalam,Toduwawa,61224,7.4859027,79.803058
1664,Puttalam,Udappuwa,61004,7.7358447,79.7988547
1665,Puttalam,Uridyawa,61502,8.0407913,79.839386
1666,Puttalam,Vanathawilluwa,61306,8.1869315,79.8611832
1667,Puttalam,Waikkal,61110,7.2837919,79.8577634
1668,Puttalam,Watugahamulla,61198,8.0407913,79.839386
1669,Puttalam,Wennappuwa,61170,7.3493037,79.8352767
1670,Puttalam,Wijeyakatupotha,61006,7.7241229,79.8688837
1671,Puttalam,Wilpotha,61008,7.7458263,79.8800832
1672,Puttalam,Yodaela,51422,7.5666667,79.8666667
1673,Puttalam,Yogiyana,61144,7.2887675,79.926266
1674,Ratnapura,Akarella,70082,6.5905329,80.6479524
1675,Ratnapura,Amunumulla,90204,6.7145912,80.7872185
1676,Ratnapura,Atakalanpanna,70294,6.5406695,80.5910567
1677,Ratnapura,Ayagama,70024,6.6377266,80.3125537
1678,Ratnapura,Balangoda,70100,6.642522,80.6887333
1679,Ratnapura,Batatota,70504,6.7055742,80.3847345
1680,Ratnapura,Beralapanathara,81541,6.7055742,80.3847345
1681,Ratnapura,Bogahakumbura,90354,6.8632985,80.8737539
1682,Ratnapura,Bolthumbe,70131,6.7428477,80.668758
1683,Ratnapura,Bomluwageaina,70344,6.7055742,80.3847345
1684,Ratnapura,Bowalagama,82458,6.6792812,80.4064707
1685,Ratnapura,Bulutota,70346,6.4706651,80.612089
1686,Ratnapura,Dambuluwana,70019,6.7018319,80.3268812
1687,Ratnapura,Daugala,70455,6.7055742,80.3847345
1688,Ratnapura,Dela,70042,6.6204934,80.4542074
1689,Ratnapura,Delwala,70046,6.516667,80.466667
1690,Ratnapura,Dodampe,70017,6.7479409,80.3146502
1691,Ratnapura,Doloswalakanda,70404,6.5744201,80.4506066
1692,Ratnapura,Dumbara Manana,70495,6.6823977,80.2427185
1693,Ratnapura,Eheliyagoda,70600,6.8485638,80.26001
1694,Ratnapura,Ekamutugama,70254,6.670085,80.395352
1695,Ratnapura,Elapatha,70032,6.6591103,80.3700407
1696,Ratnapura,Ellagawa,70492,6.733223,80.214817
1697,Ratnapura,Ellaulla,70552,6.7055742,80.3847345
1698,Ratnapura,Ellawala,70606,6.8089283,80.2627973
1699,Ratnapura,Embilipitiya,70200,6.3162324,80.8433145
1700,Ratnapura,Eratna,70506,6.8350065,80.4083088
1701,Ratnapura,Erepola,70602,6.8032999,80.2460718
1702,Ratnapura,Gabbela,70156,6.5134793,80.5466229
1703,Ratnapura,Gangeyaya,70195,6.3739887,80.8377789
1704,Ratnapura,Gawaragiriya,70026,6.6504056,80.2627973
1705,Ratnapura,Gillimale,70002,6.7519393,80.4267037
1706,Ratnapura,Godakawela,70160,6.504906,80.6521139
1707,Ratnapura,Gurubewilagama,70136,7.873054,80.771797
1708,Ratnapura,Halwinna,70171,6.7055742,80.3847345
1709,Ratnapura,Handagiriya,70106,6.5521354,80.7824012
1710,Ratnapura,Hatangala,70105,6.542693,80.7400537
1711,Ratnapura,Hatarabage,70108,6.658241,80.7491443
1712,Ratnapura,Hewanakumbura,90358,7.3057088,80.6737742
1713,Ratnapura,Hidellana,70012,6.7142258,80.3860459
1714,Ratnapura,Hiramadagama,70296,6.5343127,80.6035494
1715,Ratnapura,Horewelagoda,82456,6.7283412,80.393811
1716,Ratnapura,Ittakanda,70342,6.4019615,80.6382413
1717,Ratnapura,Kahangama,70016,6.7131236,80.3564792
1718,Ratnapura,Kahawatta,70150,6.5755312,80.574573
1719,Ratnapura,Kalawana,70450,6.5317136,80.3964824
1720,Ratnapura,Kaltota,70122,6.659396,80.8709872
1721,Ratnapura,Kalubululanda,90352,6.7283412,80.393811
1722,Ratnapura,Kananke Bazaar,80136,6.0187655,80.4420992
1723,Ratnapura,Kandepuhulpola,90356,6.8366826,80.8682203
1724,Ratnapura,Karandana,70488,6.7827035,80.2183951
1725,Ratnapura,Karangoda,70018,6.6775711,80.3957885
1726,Ratnapura,Kella Junction,70352,6.3611044,80.6919119
1727,Ratnapura,Keppetipola,90350,7.1632517,80.5705396
1728,Ratnapura,Kiriella,70480,6.7295038,80.2704602
1729,Ratnapura,Kiriibbanwewa,70252,6.3776742,80.9719108
1730,Ratnapura,Kolambage Ara,70180,6.4183564,80.7803238
1731,Ratnapura,Kolombugama,70403,6.5678356,80.4938267
1732,Ratnapura,Kolonna,70350,6.4052845,80.6852253
1733,Ratnapura,Kudawa,70005,6.4433546,80.4170572
1734,Ratnapura,Kuruwita,70500,6.8218403,80.3615079
1735,Ratnapura,Lellopitiya,70056,6.663967,80.4840974
1736,Ratnapura,Imaduwa,80130,6.0359878,80.3903902
1737,Ratnapura,Imbulpe,70134,6.7008173,80.7533126
1738,Ratnapura,Mahagama Colony,70256,7.3787979,80.3839584
1739,Ratnapura,Mahawalatenna,70112,6.5870877,80.7486062
1740,Ratnapura,Makandura,70298,6.5532888,80.6313041
1741,Ratnapura,Malwala Junction,70001,6.6821743,80.4097349
1742,Ratnapura,Malwatta,32198,6.5099709,80.641016
1743,Ratnapura,Matuwagalagama,70482,6.7055742,80.3847345
1744,Ratnapura,Medagalature,70021,6.6775711,80.3957885
1745,Ratnapura,Meddekanda,70127,6.6752433,80.6590494
1746,Ratnapura,Minipura Dumbara,70494,6.7159327,80.2139173
1747,Ratnapura,Mitipola,70604,6.8345939,80.223766
1748,Ratnapura,Moragala Kirillapone,81532,6.8577436,80.2558288
1749,Ratnapura,Morahela,70129,6.6850981,80.6909448
1750,Ratnapura,Mulendiyawala,70212,6.288684,80.771321
1751,Ratnapura,Mulgama,70117,6.6660517,80.817651
1752,Ratnapura,Nawalakanda,70469,6.244607,80.1434573
1753,Ratnapura,Nawinnapinnakanda,70165,6.7055742,80.3847345
1754,Ratnapura,Niralagama,70038,6.7055742,80.3847345
1755,Ratnapura,Nivitigala,70400,6.595885,80.457767
1756,Ratnapura,Omalpe,70215,6.3267626,80.6964905
1757,Ratnapura,Opanayaka,70080,6.6237596,80.6874372
1758,Ratnapura,Padalangala,70230,6.2491779,80.9152434
1759,Ratnapura,Pallebedda,70170,6.4827398,80.7064489
1760,Ratnapura,Pallekanda,82454,6.6360373,80.6812388
1761,Ratnapura,Pambagolla,70133,6.6904871,80.3798933
1762,Ratnapura,Panamura,70218,6.3435275,80.7731932
1763,Ratnapura,Panapola,70461,6.4300373,80.4493405
1764,Ratnapura,Paragala,81474,6.5964832,80.3380213
1765,Ratnapura,Parakaduwa,70550,6.8257029,80.3073826
1766,Ratnapura,Pebotuwa,70045,6.5279235,80.4538177
1767,Ratnapura,Pelmadulla,70070,6.6344847,80.5299541
1768,Ratnapura,Pinnawala,70130,7.3009705,80.3871563
1769,Ratnapura,Pothdeniya,81538,6.7082496,80.3826644
1770,Ratnapura,Rajawaka,70116,6.6027409,80.8073259
1771,Ratnapura,Ranwala,70162,6.5472914,80.6632103
1772,Ratnapura,Rassagala,70135,6.6923487,80.6378945
1773,Ratnapura,Rathgama,80260,6.7151698,80.4688805
1774,Ratnapura,Ratna Hangamuwa,70036,6.6423601,80.3909164
1775,Ratnapura,Ratnapura,70000,6.6951454,80.3727429
1776,Ratnapura,Sewanagala,70250,6.3598916,80.9195605
1777,Ratnapura,Sri Palabaddala,70004,6.7890641,80.4604643
1778,Ratnapura,Sudagala,70502,6.8089088,80.3936994
1779,Ratnapura,Thalakolahinna,70101,6.7055742,80.3847345
1780,Ratnapura,Thanjantenna,70118,6.6334943,80.8457363
1781,Ratnapura,Theppanawa,70512,6.7494438,80.3460273
1782,Ratnapura,Thunkama,70205,6.2782595,80.8882777
1783,Ratnapura,Udakarawita,70044,6.5928022,80.4594505
1784,Ratnapura,Udaniriella,70034,6.7295038,80.2704602
1785,Ratnapura,Udawalawe,70190,6.4055619,80.8020543
1786,Ratnapura,Ullinduwawa,70345,6.3701976,80.6271415
1787,Ratnapura,Veddagala,70459,6.4645846,80.4320286
1788,Ratnapura,Vijeriya,70348,6.4173268,80.6535958
1789,Ratnapura,Waleboda,70138,6.7265157,80.6640036
1790,Ratnapura,Watapotha,70408,6.7283412,80.393811
1791,Ratnapura,Waturawa,70456,6.4985327,80.4445611
1792,Ratnapura,Weligepola,70104,6.5718059,80.7048084
1793,Ratnapura,Welipathayaya,70124,6.6198117,80.8737539
1794,Ratnapura,Wikiliya,70114,6.621491,80.7505417
1795,Trincomalee,Agbopura,31304,8.3313952,80.9764892
1796,Trincomalee,Buckmigama,31028,8.5873638,81.2152121
1797,Trincomalee,China Bay,31050,8.5629202,81.1990094
1798,Trincomalee,Dehiwatte,31226,8.5873638,81.2152121
1799,Trincomalee,Echchilampattai,31236,8.5873638,81.2152121
1800,Trincomalee,Galmetiyawa,31318,8.5873638,81.2152121
1801,Trincomalee,Gomarankadawala,31026,8.6750384,80.9632423
1802,Trincomalee,Kaddaiparichchan,31212,8.4543544,81.2917971
1803,Trincomalee,Kallar,30250,8.5873638,81.2152121
1804,Trincomalee,Kanniya,31032,8.5987805,81.1871515
1805,Trincomalee,Kantalai,31300,8.3512634,81.0069928
1806,Trincomalee,Kantalai Sugar Factory,31306,8.3167222,81.0467219
1807,Trincomalee,Kiliveddy,31220,8.3618361,81.2842702
1808,Trincomalee,Kinniya,31100,8.5025473,81.1803832
1809,Trincomalee,Kuchchaveli,31014,8.821385,81.0947808
1810,Trincomalee,Kumburupiddy,31012,8.7356879,81.1609679
1811,Trincomalee,Kurinchakerny,31112,8.5019158,81.1719936
1812,Trincomalee,Lankapatuna,31234,8.3573611,81.3896222
1813,Trincomalee,Mahadivulwewa,31036,8.6173858,80.9642773
1814,Trincomalee,Maharugiramam,31106,8.5873638,81.2152121
1815,Trincomalee,Mallikativu,31224,8.5873638,81.2152121
1816,Trincomalee,Mawadichenai,31238,8.6094463,81.2163837
1817,Trincomalee,Mullipothana,31312,8.4286799,81.0561458
1818,Trincomalee,Mutur,31200,8.4579065,81.2684019
1819,Trincomalee,Neelapola,31228,8.3700677,81.2243444
1820,Trincomalee,Nilaveli,31010,8.6927331,81.1885293
1821,Trincomalee,Pankulam,31034,8.6251302,81.0326795
1822,Trincomalee,Pulmoddai,50567,8.9445522,80.9826718
1823,Trincomalee,Rottawewa,31038,8.5995002,80.9217021
1824,Trincomalee,Sampaltivu,31006,8.6365976,81.2230485
1825,Trincomalee,Sampoor,31216,8.4822436,81.2893793
1826,Trincomalee,Serunuwara,31232,8.3249734,81.3007405
1827,Trincomalee,Seruwila,31260,8.37057,81.3199136
1828,Trincomalee,Sirajnagar,31314,8.5873638,81.2152121
1829,Trincomalee,Somapura,31222,8.2980156,81.2766598
1830,Trincomalee,Tampalakamam,31046,8.4973752,81.0920218
1831,Trincomalee,Thuraineelavanai,30254,7.4473064,81.7992057
1832,Trincomalee,Tiriyayi,31016,6.9406468,79.8613286
1833,Trincomalee,Toppur,31250,8.4045812,81.3124341
1834,Trincomalee,Trincomalee,31000,8.5873638,81.2152121
1835,Trincomalee,Wanela,31308,8.3817383,81.079605
1836,Vavuniya,Vavuniya,43000,8.7542029,80.4982402
1837,Colombo,Colombo 1,00100,6.87587,79.8606739
1838,Colombo,Colombo 3,00300,6.8989344,79.8537672
1839,Colombo,Colombo 4,00400,6.8961335,79.8571475
1840,Colombo,Colombo 5,00500,6.8887947,79.8663024
1841,Colombo,Colombo 7,00700,6.9116652,79.8645678
1842,Colombo,Colombo 9,00900,6.9367708,79.8607806
1843,Colombo,Colombo 10,01000,6.9277038,79.8660836
1844,Colombo,Colombo 11,01100,6.9390418,79.853319
1845,Colombo,Colombo 12,01200,6.9386362,79.8609174
1846,Colombo,Colombo 14,01400,6.9447602,79.8680208
1847,Colombo,Colombo Secretariant,00110,6.9388302,79.855973
1848,Colombo,Melle Street,00276,6.9270786,79.861243
1849,Colombo,Rifel Street,00279,6.9238144,79.8504913
1850,Colombo,Gem & Jewelry,00370,6.9326529,79.844161
1851,Colombo,Torington Square,00376,6.9035383,79.8681098
1852,Colombo,National Museum of Colombo,00377,6.9104555,79.8609925
1853,Colombo,Colombo Labour Sec,00510,6.8920069,79.8764254
1854,Colombo,Polhengoda,00576,6.8810588,79.8801335
1855,Colombo,Anderson Plats,00577,6.8901704,79.8729621
1856,Colombo,Keppetipola Mawatha,00579,6.9280062,79.8875707
1857,Colombo,Narahenpita,00582,6.8975934,79.881483
1858,Colombo,Kirulapana,00677,6.8814717,79.8763476
1859,Colombo,University of Colombo,00710,6.9000149,79.8587938
1860,Colombo,Colombo General Hospital,00779,6.9187429,79.868992
1861,Colombo,Gothami Road,00876,6.9145356,79.8873565
1862,Colombo,Wanathamulla,00877,6.9267093,79.881483
1863,Colombo,Baseline Road,00878,6.9327966,79.8781775
1864,Colombo,Kopiyawatta,00879,6.9336902,79.8787417
1865,Colombo,Maligawatta,01070,6.9372716,79.8717512
1866,Colombo,Panchikawatte,01078,6.9309682,79.8639835
1867,Colombo,Sarasavipaya,01079,6.908046,79.8759816
1868,Colombo,Maligakanda,01081,6.9284106,79.8681837
1869,Colombo,Wolfendal Street,01178,6.9396352,79.8543014
1870,Colombo,Pettah Bus Stand,01179,6.9350054,79.8545697
1871,Colombo,Colombo Kachcheri,01181,6.9384005,79.8555521
1872,Colombo,Armour Street,01182,6.9424222,79.8637618
1874,Colombo,Miraniya Street,01276,6.9369644,79.8636471
1875,Colombo,Wasala Road,01377,6.9511877,79.8649857
1876,Colombo,Nagalagam Street,01476,6.955273,79.8765151
1877,Colombo,Aluth Mawatha Road,01478,6.9695288,79.8732249
1878,Colombo,Mutwal South,01479,6.9669247,79.8711533
1879,Colombo,Beddagana,10101,6.8914991,79.9090871
1880,Colombo,Madiwela,10102,6.8773153,79.9234678
1881,Colombo,Sri Perakumpura,10103,8.1528551,80.1456496
1882,Colombo,Mirihana North,10104,6.8796652,79.9094751
1883,Colombo,Nawala-Koswatte,10105,6.9005375,79.8954802
1884,Colombo,Nawala,10106,6.8964191,79.8884819
1885,Colombo,Rajagiriya,10107,6.9094108,79.8942538
1886,Colombo,Parliament of Sri Lanka,10110,6.9311095,79.8430296
1887,Colombo,Obeysekarapura,10111,6.9133098,79.8902636
1888,Colombo,Kalapaluwawa,10112,6.9165531,79.9208324
1889,Colombo,Talangama North,10113,6.9168782,79.9317302
1890,Colombo,Talangama South,10114,6.8867552,79.9475999
1891,Colombo,Jayawardhenegama,10117,6.9270786,79.861243
1892,Colombo,Isurupaya,10130,6.9291877,79.8639489
1893,Colombo,Sethsiripaya,10140,6.9032769,79.9154222
1894,Colombo,Malabe,10155,6.9060787,79.9696277
1895,Colombo,Oruwala,10201,6.8829038,80.0003875
1896,Colombo,Panagoda Army Camp,10203,6.8656117,80.0276427
1897,Colombo,Magammana-Dolekade,10207,6.8217877,79.9983811
1898,Colombo,Homagama Town,10209,6.8432762,80.0031833
1899,Colombo,Godagama Junction,10211,6.8516724,80.0327334
1900,Colombo,Panagoda,10213,6.8656117,80.0276427
1901,Colombo,Galawilawaththa,10217,6.8364602,79.9933976
1902,Colombo,Kottawa,10220,6.8411652,79.9654324
1903,Colombo,Pelenwatta,10231,6.8235393,79.9444526
1904,Colombo,Arawwala West,10233,6.8382446,79.944071
1905,Colombo,Kottawa North,10235,6.8614731,79.9563417
1906,Colombo,Rukmale-Pannipitiya,10237,6.8559758,79.9780178
1907,Colombo,Malapalla,10239,6.8468057,79.9822126
1908,Colombo,Mattegoda,10240,6.8135488,79.9724245
1909,Colombo,Mirihana,10251,6.8689647,79.9038774
1910,Colombo,Udahamulla,10252,6.8665559,79.9150724
1911,Colombo,Kohuwala,10255,6.8624842,79.8854983
1912,Colombo,Pamunuwa-Patiragoda,10281,6.8616689,79.928929
1913,Colombo,Sudanapura,10282,6.878306,80.2432536
1914,Colombo,Nawinna,10283,6.8533309,79.9150724
1915,Colombo,Vidyodaya University,10284,6.9052235,79.8512559
1916,Colombo,Pepiliyana,10291,6.8538166,79.8850876
1917,Colombo,Katuwawala,10292,6.8321178,79.9122738
1918,Colombo,Suwarapola,10301,6.7978742,79.9178709
1919,Colombo,Gorakapitiya,10303,6.8143746,79.9486489
1920,Colombo,Makandana,10305,6.7769319,79.9511143
1921,Colombo,Kesbewa,10307,6.7786701,79.9472502
1922,Colombo,Bokundara,10309,6.8164327,79.9206694
1923,Colombo,Kahathuduwa,10321,6.782298,79.9947956
1924,Colombo,Ratmalana North,10372,6.8213856,79.8901296
1925,Colombo,Sirimal Uyana,10373,6.82677,79.8779834
1926,Colombo,Ratmalana,10390,6.8187954,79.8710195
1927,Colombo,Koralawella,10401,6.7577928,79.88737
1928,Colombo,Egodauyana North,10402,6.7209414,79.9010784
1929,Colombo,Egodauyana South,10403,6.7209414,79.9010784
1930,Colombo,Indibedda,10404,6.7738048,79.9038774
1931,Colombo,Moratumulla,10405,6.7808497,79.8933807
1932,Colombo,Rawathawatta,10406,6.7918869,79.8842826
1933,Colombo,Willorawatta,10407,6.7868785,79.9009884
1934,Colombo,Lunawa,10408,6.7864859,79.8786833
1935,Colombo,Laksapatiya,10409,6.9270786,79.861243
1936,Colombo,Angulana,10411,6.7976114,79.8737836
1937,Colombo,Kaldemulla,10413,6.8056265,79.8779834
1938,Colombo,Katubedda,10414,6.8014572,79.8996789
1939,Colombo,Liyanwala,10501,6.8369077,80.0786359
1940,Colombo,Poregedara,10503,6.8225047,80.0856189
1941,Colombo,Dampe,10505,6.7717868,79.9159181
1942,Colombo,Malagala,10507,6.7951715,80.1065646
1943,Colombo,Meepe Junction,10509,6.7674949,80.8471749
1944,Colombo,Pinnawala-Waga,10515,6.8672073,80.1209422
1945,Colombo,Angampitiya,10517,6.8470031,80.1191296
1946,Colombo,Arukwathupura,10519,6.8710258,79.9388571
1947,Colombo,Kandanapitiya,10523,6.8152383,80.1517322
1948,Colombo,Gurulana,10527,6.8345776,80.1582088
1949,Colombo,Udugamkanda,10529,7.1376448,80.0928982
1951,Gampaha,Wattala,11300,6.9860132,79.9070156
1952,Anuradhapura,Bulnewa,50172,8.0413923,80.4465594
1953,Anuradhapura,Kebithigollewa,50550,8.6408916,80.6696816
1974,Matale,Madipola,21156,7.6761154,80.5827272
1975,Matara,Karatota,81308,6.0641272,80.6660092
1976,Hambantota,Gangulandeniya,82506,6.2956299,80.7186697
1977,Badulla,Idalgashinna,90167,6.782969,80.9000331
1978,Jaffna,Allaipiddi,40048,9.6198878,79.9654324
1979,Jaffna,Allaveddi,40120,9.6614981,80.0255465
1980,Jaffna,Alvai,40635,9.8208633,80.2042436
1981,Jaffna,Anaikoddai,40198,9.6963543,79.9947956
1982,Jaffna,Analaitivu,40280,9.6679003,79.7764337
1983,Jaffna,Araly,40221,9.7062078,79.9556424
1984,Jaffna,Atchuveli,40150,9.7786397,80.1160651
1985,Jaffna,Chankanai,40212,9.7452236,79.9724245
1986,Jaffna,Chavakachcheri,40500,9.66646,80.1320918
1987,Jaffna,Chullipuram,40230,9.7659262,79.9462375
1988,Jaffna,Chundikuli,40020,9.6534927,80.0339312
1989,Jaffna,Chunnakam,40075,9.7375634,80.0245049
1990,Jaffna,Delft West,40378,9.5276911,79.6998574
1991,Jaffna,Delft,40370,9.5276911,79.6998574
1992,Jaffna,Eluvaitivu,40275,9.6923105,79.811464
1993,Jaffna,Erialai,40080,9.6382902,80.0786359
1994,Jaffna,Ilavalai,40108,9.7952753,79.9892034
1995,Jaffna,Kankesanthurai,40190,9.8161105,80.0447878
1996,Jaffna,Karainagar,40250,9.7480738,79.8828828
1997,Jaffna,Karaveddi,40520,9.8000673,80.1994182
1998,Jaffna,Kayts,40270,9.6978937,79.8604831
1999,Jaffna,Kodikamam,40700,9.6844904,80.2220177
2000,Jaffna,Kokuvil,40060,9.690824,80.021143
2001,Jaffna,Kondavil,40062,9.7030007,80.0339312
2002,Jaffna,Kopay,40170,9.7043028,80.0786359
2003,Jaffna,Kudatanai,40620,9.6614981,80.0255465
2004,Jaffna,Mallakam,40142,9.7618864,80.0241489
2005,Jaffna,Mandaitivu,40045,9.6165391,79.9919995
2006,Jaffna,Manipay,40200,9.7291062,79.9925446
2007,Jaffna,Mathagal,40110,9.7860178,79.9661308
2008,Jaffna,Meesalai,40510,9.6746661,80.1958755
2010,Jaffna,Mirusuvil,40750,9.6677028,80.234018
2011,Jaffna,Nagarkovil,40630,9.703095,80.3137106
2012,Jaffna,Nagendramadam,40223,9.6614981,80.0255465
2013,Jaffna,Nainathivu,40360,9.6190123,79.7748762
2014,Jaffna,Neervely,40165,9.7210699,80.0846944
2015,Jaffna,Pandaterippu,40100,9.7782569,79.9724245
2016,Jaffna,Point Pedro,40600,9.7937885,80.2209773
2017,Jaffna,Puloly,40615,9.8172829,80.2352681
2018,Jaffna,Pungudutivu,40330,9.5896465,79.8240715
2019,Jaffna,Puttur,40158,9.7330898,80.1000376
2020,Jaffna,Sandilipay,40098,9.749336,79.9873832
2021,Jaffna,Sangarathai,40225,9.7285472,79.9668308
2022,Jaffna,Sithankerny,40229,9.753655,79.9617755
2023,Jaffna,Sivankovilady,40227,9.6713051,80.0115568
2024,Jaffna,Thellippallai,40130,9.7910875,80.0339312
2025,Jaffna,Thondamanaru,40545,9.8184078,80.1369654
2026,Jaffna,Urumpirai,40180,9.720319,80.0430418
2027,Jaffna,Vaddukoddai,40220,9.7223843,79.9444526
2028,Jaffna,Valvettithurai,40540,9.814937,80.1660804
2029,Jaffna,Varany,40640,9.6664999,80.0109654
2030,Jaffna,Vasavilan,40145,9.7883065,80.0700712
2031,Jaffna,Velanai,40300,9.6372405,79.9010784
2037,Kilinochchi,Akkarayankulam,42640,9.3261452,80.3018107
2038,Kilinochchi,Aliyawalai,42565,9.5881892,80.4465594
2039,Kilinochchi,Chempiyanpattu,42560,9.3802886,80.3769999
2040,Kilinochchi,Elephant Pass,42510,9.5256655,80.4062265
2041,Kilinochchi,Eluthumadduval,42580,9.65623,80.2831668
2042,Kilinochchi,Iranaitiv,42630,9.2899329,79.9836108
2043,Kilinochchi,Iyyakachchi,42520,9.5715235,80.4161968
2044,Kilinochchi,Kavutharimunai,42608,9.566667,80.116667
2045,Kilinochchi,Konavil,42645,9.3514991,80.3268812
2046,Kilinochchi,Mulliyan,42570,9.5531319,80.4715866
2047,Kilinochchi,Murasumoddai,42505,9.4379202,80.4528169
2048,Kilinochchi,Pallavarayankaddu,42615,9.314322,80.1707662
2049,Kilinochchi,Paranthan,42500,9.4414152,80.4048306
2050,Kilinochchi,Puliyampokkanai,42509,9.4410449,80.5312523
2051,Kilinochchi,Punakari-Nallur,42606,9.4502757,80.2781262
2052,Kilinochchi,Ramanathapuram,42408,9.3669942,80.4938267
2053,Kilinochchi,Sivapuram,42618,9.4458753,80.4173514
2054,Kilinochchi,Skanthapuram,42638,9.3371078,80.3018107
2055,Kilinochchi,Thalaiyadi,42563,9.6304585,80.4028523
2056,Kilinochchi,Tharmapuram,42512,9.4106524,80.5233636
2057,Kilinochchi,Uruthirapuram,42502,9.3986525,80.3463754
2058,Kilinochchi,Vaddakachchi,42405,9.3613906,80.4666732
2059,Kilinochchi,Vannerikkulam,42635,9.3802886,80.3769999
2060,Kilinochchi,Veravil,42620,9.3528476,80.0786359
2061,Kilinochchi,Vinayagapuram,42625,9.1138401,80.2432839
2071,Kilinochchi,Pallai,42550,9.5673228,80.3881333
2076,Mullaitivu,Alampil,42005,9.1815797,80.8460822
2077,Mullaitivu,Karuppaddamurippu,42220,9.1526403,80.520229
2078,Mullaitivu,Mankulam,42300,9.1369885,80.4451687
2079,Mullaitivu,Mullivaikkal,42540,9.3119602,80.7865906
2080,Mullaitivu,Mulliyawalai,42100,9.2192151,80.7643952
2081,Mullaitivu,Muththaiyankaddukulam,42210,9.2670911,80.814248
2082,Mullaitivu,Naddankandal,42308,9.004013,80.2209773
2083,Mullaitivu,Oddusudan,42200,9.1538678,80.6497312
2084,Mullaitivu,Puthukkudiyiruppu,42530,9.3157998,80.6926212
2085,Mullaitivu,Puthuvedduvan,42330,9.2475408,80.3324514
2086,Mullaitivu,Thunukkai,42320,9.1340486,80.2862636
2087,Mullaitivu,Udayarkaddu,42518,9.3131821,80.5841155
2088,Mullaitivu,Vavunakkulam,42305,9.2670911,80.814248
2089,Mullaitivu,Visvamadukulam,42515,9.376037,80.5502456
2090,Mullaitivu,Yogapuram,42315,9.130417,80.3072085
2093,Anuradhapura,Ethawetunuwewa,50584,8.9752567,80.7449997
2097,Mullaitivu,Mullathivu,42000,9.2670911,80.814248
2099,Mullaitivu,Welioya,50586,8.9640414,80.7879407
2116,Vavuniya,Nedunkerny,42250,9.0537187,80.6604364
2117,Vavuniya,Neriyakulam,43300,8.6154622,80.3547286
2213,Gampaha,Mabola,11104,7.0062833,79.8924828
